{"type":"FeatureCollection","features":[{"type":"Feature","geometry":{"type":"Point","coordinates":[-79.9804335,-1.8701338]},"properties":{"name":"Hospital Daule","amenity":"hospital","osm_id":"node/2911632183","source":"OpenStreetMap"}},{"type":"Feature","geometry":{"type":"Point","coordinates":[-79.982317,-1.8638397]},"properties":{"name":"ESTACION  DE BOMBEROS DAULE","amenity":"fire_station","osm_id":"node/3684686642","source":"OpenStreetMap"}},{"type":"Feature","geometry":{"type":"Point","coordinates":[-79.8784994,-2.0538343]},"properties":{"amenity":"police","osm_id":"node/4304633951","source":"OpenStreetMap"}},{"type":"Feature","geometry":{"type":"Point","coordinates":[-79.9806856,-1.8664483]},"properties":{"name":"Dra. Mogrovejo","amenity":"clinic","osm_id":"node/4329760589","source":"OpenStreetMap"}},{"type":"Feature","geometry":{"type":"Point","coordinates":[-79.9811731,-1.864258]},"properties":{"name":"Dr Mogrovejo","amenity":"clinic","osm_id":"node/4329821889","source":"OpenStreetMap"}},{"type":"Feature","geometry":{"type":"Point","coordinates":[-79.9771948,-1.8692107]},"properties":{"name":"Dispensario del IESS","amenity":"hospital","healthcare":"hospital","osm_id":"node/4368419094","source":"OpenStreetMap"}},{"type":"Feature","geometry":{"type":"Point","coordinates":[-79.976886,-1.8479273]},"properties":{"name":"UPC","amenity":"police","osm_id":"node/4368540290","source":"OpenStreetMap"}},{"type":"Feature","geometry":{"type":"Point","coordinates":[-79.9769879,-1.8492221]},"properties":{"name":"Destacamento CTE Daule","amenity":"police","osm_id":"node/4368540791","source":"OpenStreetMap"}},{"type":"Feature","geometry":{"type":"Point","coordinates":[-79.8136445,-1.8301972]},"properties":{"name":"Area de emergencia del Hospital","amenity":"hospital","healthcare":"hospital","osm_id":"node/4698329391","source":"OpenStreetMap"}},{"type":"Feature","geometry":{"type":"Point","coordinates":[-79.8159538,-1.82854]},"properties":{"name":"Cuerpo de bomberos","amenity":"fire_station","osm_id":"node/4698338989","source":"OpenStreetMap"}},{"type":"Feature","geometry":{"type":"Point","coordinates":[-79.8143678,-1.8288545]},"properties":{"name":"Destacamento de Policia","amenity":"police","osm_id":"node/4698359092","source":"OpenStreetMap"}},{"type":"Feature","geometry":{"type":"Point","coordinates":[-79.839136,-1.8382091]},"properties":{"name":"UPC Salitre","amenity":"police","osm_id":"node/5027652031","source":"OpenStreetMap"}},{"type":"Feature","geometry":{"type":"Point","coordinates":[-80.0707389,-1.8851076]},"properties":{"name":"UPC","amenity":"police","osm_id":"node/5119741528","source":"OpenStreetMap"}},{"type":"Feature","geometry":{"type":"Point","coordinates":[-79.8735392,-2.0429164]},"properties":{"name":"parque de ferrara","amenity":"fire_station","osm_id":"node/5213494629","source":"OpenStreetMap"}},{"type":"Feature","geometry":{"type":"Point","coordinates":[-79.9865567,-1.9854225]},"properties":{"name":"UPC","amenity":"police","osm_id":"node/5294330724","source":"OpenStreetMap"}},{"type":"Feature","geometry":{"type":"Point","coordinates":[-79.8149907,-1.8284913]},"properties":{"name":"Salitre Norte","amenity":"police","osm_id":"node/5839872090","source":"OpenStreetMap"}},{"type":"Feature","geometry":{"type":"Point","coordinates":[-79.9129771,-2.0689108]},"properties":{"name":"Cuartel Metrópolis N°17","amenity":"fire_station","osm_id":"node/5862650098","source":"OpenStreetMap"}},{"type":"Feature","geometry":{"type":"Point","coordinates":[-79.9192851,-2.0554176]},"properties":{"name":"MediGlobal","amenity":"clinic","healthcare":"clinic","osm_id":"node/6818504270","source":"OpenStreetMap"}},{"type":"Feature","geometry":{"type":"Point","coordinates":[-79.882757,-2.0544424]},"properties":{"name":"Bomberos Daule cuartel 3","amenity":"fire_station","osm_id":"node/6821279396","source":"OpenStreetMap"}},{"type":"Feature","geometry":{"type":"Point","coordinates":[-79.9352255,-1.8860508]},"properties":{"name":"UPC Las Maravillas","amenity":"police","osm_id":"node/8883999617","source":"OpenStreetMap"}},{"type":"Feature","geometry":{"type":"Point","coordinates":[-79.9875967,-1.8704106]},"properties":{"name":"Fiscalia de Daule","amenity":"police","osm_id":"node/8904917618","source":"OpenStreetMap"}},{"type":"Feature","geometry":{"type":"Point","coordinates":[-79.9781076,-1.8438208]},"properties":{"name":"SESMYD","amenity":"hospital","healthcare":"hospital","osm_id":"node/9049619831","source":"OpenStreetMap"}},{"type":"Feature","geometry":{"type":"Point","coordinates":[-79.983084,-2.0587812]},"properties":{"name":"UPC Villa Bonita","amenity":"police","osm_id":"node/10109092918","source":"OpenStreetMap"}},{"type":"Feature","geometry":{"type":"Point","coordinates":[-79.958698,-2.0864678]},"properties":{"name":"COMPAÑÍA # 17 BELISARIO GONZALEZ","amenity":"fire_station","osm_id":"node/10186533247","source":"OpenStreetMap"}},{"type":"Feature","geometry":{"type":"Point","coordinates":[-79.9300919,-2.0685282]},"properties":{"name":"COMPAÑÍA # 32 PATRIA","amenity":"fire_station","osm_id":"node/12697695583","source":"OpenStreetMap"}},{"type":"Feature","geometry":{"type":"Point","coordinates":[-79.8885287,-2.0501429]},"properties":{"name":"Life Town - Centro Médico","amenity":"clinic","healthcare":"clinic","osm_id":"node/13348976584","source":"OpenStreetMap"}},{"type":"Feature","geometry":{"type":"Point","coordinates":[-79.9599087,-2.0872759]},"properties":{"name":"upc","amenity":"police","osm_id":"node/13991460710","source":"OpenStreetMap"}},{"type":"Feature","geometry":{"type":"Point","coordinates":[-79.9695042,-2.0851242]},"properties":{"name":"Upc","amenity":"police","osm_id":"node/13991460711","source":"OpenStreetMap"}},{"type":"Feature","geometry":{"type":"Point","coordinates":[-79.976203,-1.8514212]},"properties":{"name":"terminal de daule","amenity":"hospital","healthcare":"hospital","osm_id":"node/14145325375","source":"OpenStreetMap"}},{"type":"Feature","geometry":{"type":"Point","coordinates":[-79.9616076,-2.0956256]},"properties":{"name":"Centro Medico Flor Del Norte","amenity":"hospital","healthcare":"hospital","osm_id":"node/14160385338","source":"OpenStreetMap"}},{"type":"Feature","geometry":{"type":"Point","coordinates":[-79.9620234,-2.095438]},"properties":{"name":"Centro Naturista Cenature","amenity":"hospital","healthcare":"hospital","osm_id":"node/14160385339","source":"OpenStreetMap"}},{"type":"Feature","geometry":{"type":"Point","coordinates":[-79.9329363,-2.085168]},"properties":{"name":"CENTRO DE SALUD","amenity":"clinic","healthcare":"clinic","osm_id":"node/14167773814","source":"OpenStreetMap"}},{"type":"Feature","geometry":{"type":"Point","coordinates":[-79.9268774,-2.0794456]},"properties":{"amenity":"hospital","healthcare":"hospital","osm_id":"node/14170676877","source":"OpenStreetMap"}},{"type":"Feature","geometry":{"type":"Point","coordinates":[-79.98505095,-1.87482715]},"properties":{"name":"UPC Multicentro","amenity":"police","osm_id":"way/287542351","source":"OpenStreetMap"}},{"type":"Feature","geometry":{"type":"Point","coordinates":[-79.98202125,-1.8732231499999998]},"properties":{"name":"DISPENSARIO MEDICO SAN FRANCISCO","amenity":"hospital","healthcare":"hospital","osm_id":"way/320719976","source":"OpenStreetMap"}},{"type":"Feature","geometry":{"type":"Point","coordinates":[-79.81352,-1.83010835]},"properties":{"name":"Hospital Basico Oswaldo Jervis 09D20","amenity":"hospital","healthcare":"hospital","osm_id":"way/357830931","source":"OpenStreetMap"}},{"type":"Feature","geometry":{"type":"Point","coordinates":[-79.9042595,-2.0881633500000003]},"properties":{"name":"Centro de Especialidades - Herolab","amenity":"hospital","healthcare":"hospital","osm_id":"way/430387662","source":"OpenStreetMap"}},{"type":"Feature","geometry":{"type":"Point","coordinates":[-79.9359359,-2.06944775]},"properties":{"amenity":"hospital","emergency":"yes","osm_id":"way/430646381","source":"OpenStreetMap"}},{"type":"Feature","geometry":{"type":"Point","coordinates":[-79.9136142,-2.0901996]},"properties":{"name":"Centro Municipal de Cuidado Infantil - Las Orquídeas","amenity":"hospital","healthcare":"hospital","osm_id":"way/430865957","source":"OpenStreetMap"}},{"type":"Feature","geometry":{"type":"Point","coordinates":[-79.87171079999999,-2.06276495]},"properties":{"name":"Cuerpo de Bomberos de Samborondón","amenity":"fire_station","osm_id":"way/431098022","source":"OpenStreetMap"}},{"type":"Feature","geometry":{"type":"Point","coordinates":[-79.9146091,-2.0498056]},"properties":{"name":"UPC","amenity":"police","osm_id":"way/431234864","source":"OpenStreetMap"}},{"type":"Feature","geometry":{"type":"Point","coordinates":[-79.89065235,-2.0484157]},"properties":{"name":"Clínica Internacional de la Visión de Ecuador","amenity":"hospital","healthcare":"hospital","osm_id":"way/431239212","source":"OpenStreetMap"}},{"type":"Feature","geometry":{"type":"Point","coordinates":[-79.94124555,-2.0886909]},"properties":{"name":"UPC-24 - Montebello","amenity":"police","osm_id":"way/431276548","source":"OpenStreetMap"}},{"type":"Feature","geometry":{"type":"Point","coordinates":[-79.8392734,-1.8383116]},"properties":{"name":"UPC Salitre","amenity":"police","osm_id":"way/514662939","source":"OpenStreetMap"}},{"type":"Feature","geometry":{"type":"Point","coordinates":[-80.0063258,-1.79309225]},"properties":{"name":"UPC","amenity":"police","osm_id":"way/552879316","source":"OpenStreetMap"}},{"type":"Feature","geometry":{"type":"Point","coordinates":[-80.0079061,-1.79435735]},"properties":{"name":"Centro de Salud","amenity":"hospital","osm_id":"way/552879327","source":"OpenStreetMap"}},{"type":"Feature","geometry":{"type":"Point","coordinates":[-80.0109556,-1.9661238]},"properties":{"amenity":"clinic","healthcare":"clinic","osm_id":"way/695688969","source":"OpenStreetMap"}},{"type":"Feature","geometry":{"type":"Point","coordinates":[-79.94110385,-2.0135391]},"properties":{"name":"Centro de Salud Los Lojas","amenity":"clinic","healthcare":"clinic","osm_id":"way/736940990","source":"OpenStreetMap"}},{"type":"Feature","geometry":{"type":"Point","coordinates":[-79.9409901,-2.0137476000000003]},"properties":{"name":"UPC Los Lojas","amenity":"police","osm_id":"way/736940993","source":"OpenStreetMap"}},{"type":"Feature","geometry":{"type":"Point","coordinates":[-79.9158652,-2.07836925]},"properties":{"name":"Expendio de alcohol y gel","amenity":"hospital","healthcare":"hospital","osm_id":"way/789694708","source":"OpenStreetMap"}},{"type":"Feature","geometry":{"type":"Point","coordinates":[-79.95037165,-2.0802999499999997]},"properties":{"name":"UVC - Unidad de Vigilancia Comunitaria - Pascuales","amenity":"police","osm_id":"way/832298273","source":"OpenStreetMap"}},{"type":"Feature","geometry":{"type":"Point","coordinates":[-79.9050041,-2.0941675]},"properties":{"name":"Subcentro de Salud Vergeles - MSP","amenity":"hospital","healthcare":"hospital","osm_id":"way/1098456272","source":"OpenStreetMap"}},{"type":"Feature","geometry":{"type":"Point","coordinates":[-80.0105146,-1.96747155]},"properties":{"name":"SSC PETRILLO","amenity":"hospital","healthcare":"hospital","emergency":"yes","osm_id":"way/1168321151","source":"OpenStreetMap"}},{"type":"Feature","geometry":{"type":"Point","coordinates":[-79.87996815,-2.05100965]},"properties":{"name":"Bomberos","amenity":"fire_station","osm_id":"way/1171000885","source":"OpenStreetMap"}},{"type":"Feature","geometry":{"type":"Point","coordinates":[-79.87987975,-2.0508227999999997]},"properties":{"name":"Subcentro de Salud - Aurora MSP","amenity":"hospital","healthcare":"hospital","osm_id":"way/1171001629","source":"OpenStreetMap"}},{"type":"Feature","geometry":{"type":"Point","coordinates":[-79.8797906,-2.0506589]},"properties":{"name":"UPC - La Aurora","amenity":"police","osm_id":"way/1171001733","source":"OpenStreetMap"}},{"type":"Feature","geometry":{"type":"Point","coordinates":[-79.85330250000001,-2.0778632999999997]},"properties":{"name":"Unidad Basica de Salud - Buijo Historico","amenity":"hospital","healthcare":"hospital","osm_id":"way/1352818108","source":"OpenStreetMap"}},{"type":"Feature","geometry":{"type":"Point","coordinates":[-79.9586878,-2.0864643000000003]},"properties":{"name":"COMPAÑÍA # 17 BELISARIO GONZALEZ","amenity":"fire_station","osm_id":"way/1370999217","source":"OpenStreetMap"}},{"type":"Feature","geometry":{"type":"Point","coordinates":[-79.9302279,-2.06856265]},"properties":{"name":"COMPAÑÍA # 32 PATRIA","amenity":"fire_station","osm_id":"way/1371005684","source":"OpenStreetMap"}},{"type":"Feature","geometry":{"type":"Point","coordinates":[-79.9154084,-2.02879195]},"properties":{"name":"Cuartel Bomberos Daule - La Joya","amenity":"fire_station","osm_id":"way/1381830694","source":"OpenStreetMap"}},{"type":"Feature","geometry":{"type":"Point","coordinates":[-79.96480195000001,-2.0052709]},"properties":{"name":"Bomberos Guayaquil - Compañía 55 Vencedores","amenity":"fire_station","osm_id":"way/1382432985","source":"OpenStreetMap"}},{"type":"Feature","geometry":{"type":"Point","coordinates":[-80.0112828,-1.9129673]},"properties":{"name":"Cuerpo de Bomberos - Nobol","amenity":"fire_station","osm_id":"way/1386905357","source":"OpenStreetMap"}},{"type":"Feature","geometry":{"type":"Point","coordinates":[-80.0106015,-1.9222721]},"properties":{"name":"Estación de Bomberos - Nobol Nuevo","amenity":"fire_station","osm_id":"way/1386905361","source":"OpenStreetMap"}},{"type":"Feature","geometry":{"type":"Point","coordinates":[-80.01682135,-1.9086976]},"properties":{"name":"Centro de Salud - Nobol","amenity":"hospital","healthcare":"hospital","osm_id":"way/1386905365","source":"OpenStreetMap"}},{"type":"Feature","geometry":{"type":"Point","coordinates":[-79.94575085,-2.0961854]},"properties":{"name":"Hospital Universitario de Guayaquil","amenity":"hospital","healthcare":"hospital","osm_id":"way/1431069214","source":"OpenStreetMap"}},{"type":"Feature","geometry":{"type":"Point","coordinates":[-79.99143835000001,-2.08595575]},"properties":{"name":"Centro de Salud - Tipo C - Ciudad Victoria - MSP","amenity":"hospital","healthcare":"hospital","access":"yes","osm_id":"way/1441517647","source":"OpenStreetMap"}},{"type":"Feature","geometry":{"type":"Point","coordinates":[-79.91826655,-2.0832941]},"properties":{"name":"PROSALUD - Villa España 1","healthcare":"clinic","osm_id":"way/1447619793","source":"OpenStreetMap"}},{"type":"Feature","geometry":{"type":"Point","coordinates":[-79.92695595,-2.06678985]},"properties":{"name":"Centro de Salud - Pascuales","amenity":"hospital","healthcare":"hospital","osm_id":"way/1449279315","source":"OpenStreetMap"}},{"type":"Feature","geometry":{"type":"Point","coordinates":[-79.83340394999999,-2.072772]},"properties":{"name":"Hospital Especialidades Dr. Trino Andrade","amenity":"hospital","healthcare":"hospital","osm_id":"way/1455599755","source":"OpenStreetMap"}},{"type":"Feature","geometry":{"type":"Point","coordinates":[-79.83430885,-2.0733762000000002]},"properties":{"name":"BCBS COMPAÑIA #9 ciudad celeste","amenity":"fire_station","osm_id":"way/1455599758","source":"OpenStreetMap"}},{"type":"Feature","geometry":{"type":"Point","coordinates":[-79.83319775,-2.0734019]},"properties":{"name":"UPC - San Nicólas","amenity":"police","osm_id":"way/1455599759","source":"OpenStreetMap"}},{"type":"Feature","geometry":{"type":"Point","coordinates":[-79.91507885,-2.02884085]},"properties":{"name":"UPC LA JOYA","amenity":"police","osm_id":"way/1455611354","source":"OpenStreetMap"}},{"type":"Feature","geometry":{"type":"Point","coordinates":[-79.9159445,-2.0844519]},"properties":{"name":"Centro de Salud - Orquideas MSP","amenity":"hospital","healthcare":"hospital","osm_id":"way/1456411099","source":"OpenStreetMap"}},{"type":"Feature","geometry":{"type":"Point","coordinates":[-79.8958387,-2.0872484499999997]},"properties":{"name":"Dirección Distrital - Pascuales MSP","amenity":"hospital","healthcare":"hospital","osm_id":"way/1456804590","source":"OpenStreetMap"}},{"type":"Feature","geometry":{"type":"Point","coordinates":[-79.88841785,-2.0484777000000003]},"properties":{"name":"Hospital Universitario Semedic UCSG","amenity":"hospital","healthcare":"hospital","osm_id":"way/1456991223","source":"OpenStreetMap"}},{"type":"Feature","geometry":{"type":"Point","coordinates":[-79.92365525,-2.09356895]},"properties":{"name":"Bodega Distrital - Pascuales MSP","amenity":"hospital","healthcare":"hospital","osm_id":"way/1458279633","source":"OpenStreetMap"}},{"type":"Feature","geometry":{"type":"Point","coordinates":[-79.92357634999999,-2.0880019499999998]},"properties":{"name":"UPC - Bastión Sur No. 2","amenity":"police","osm_id":"way/1516357037","source":"OpenStreetMap"}},{"type":"Feature","geometry":{"type":"Point","coordinates":[-79.93567429999999,-2.0960373]},"properties":{"name":"Centro Médico - Para Mí","amenity":"hospital","healthcare":"hospital","osm_id":"way/1516357051","source":"OpenStreetMap"}},{"type":"Feature","geometry":{"type":"Point","coordinates":[-79.9157331,-2.0359862499999997]},"properties":{"name":"VERIS - Centro Médico","amenity":"hospital","healthcare":"hospital","osm_id":"way/1517278954","source":"OpenStreetMap"}},{"type":"Feature","geometry":{"type":"Point","coordinates":[-79.8336258,-2.0727689]},"properties":{"name":"Hospital - Incarvasc","amenity":"hospital","healthcare":"hospital","osm_id":"way/1524506015","source":"OpenStreetMap"}},{"type":"Feature","geometry":{"type":"Point","coordinates":[-79.85348775,-2.07549085]},"properties":{"name":"IRHED Centro Médico Samborondón","amenity":"hospital","healthcare":"hospital","osm_id":"way/1524506023","source":"OpenStreetMap"}},{"type":"Feature","geometry":{"type":"Point","coordinates":[-79.87008825,-2.0390898]},"properties":{"name":"Centro Médico Klinic","amenity":"hospital","healthcare":"hospital","osm_id":"way/1524711213","source":"OpenStreetMap"}},{"type":"Feature","geometry":{"type":"Point","coordinates":[-79.86643125,-2.01167425]},"properties":{"name":"Ciudad Salud - Centro de Especializades","amenity":"hospital","healthcare":"hospital","osm_id":"way/1524749587","source":"OpenStreetMap"}},{"type":"Feature","geometry":{"type":"Point","coordinates":[-79.9268452,-2.0795184]},"properties":{"name":"Centro de Salud - Bastión Popular - MSP","amenity":"hospital","healthcare":"hospital","osm_id":"way/1525188783","source":"OpenStreetMap"}},{"type":"Feature","geometry":{"type":"Point","coordinates":[-79.93204765,-2.0786645]},"properties":{"name":"UPC","amenity":"police","osm_id":"way/1526825939","source":"OpenStreetMap"}},{"type":"Feature","geometry":{"type":"Point","coordinates":[-79.93291915,-2.0852064500000003]},"properties":{"name":"Centro de Salud - Bastión Popular 1 - MSP","amenity":"hospital","healthcare":"hospital","osm_id":"way/1526835270","source":"OpenStreetMap"}},{"type":"Feature","geometry":{"type":"Point","coordinates":[-79.9328605,-2.0847310500000003]},"properties":{"name":"UPC - 88","amenity":"police","osm_id":"way/1526835271","source":"OpenStreetMap"}},{"type":"Feature","geometry":{"type":"Point","coordinates":[-79.92901795,-2.08369575]},"properties":{"name":"CETAD - Centro de Tratamiento Primario desintoxicación","amenity":"hospital","healthcare":"hospital","osm_id":"way/1526845225","source":"OpenStreetMap"}},{"type":"Feature","geometry":{"type":"Point","coordinates":[-79.9062727,-2.0912246999999997]},"properties":{"name":"Centro Medico - CEP Medic","amenity":"hospital","healthcare":"hospital","osm_id":"way/1526865245","source":"OpenStreetMap"}},{"type":"Feature","geometry":{"type":"Point","coordinates":[-79.9038167,-2.0954406]},"properties":{"name":"RORI Centro de Especialidades Médicas","amenity":"hospital","healthcare":"hospital","osm_id":"way/1526865248","source":"OpenStreetMap"}},{"type":"Feature","geometry":{"type":"Point","coordinates":[-79.91301555000001,-2.0893414999999997]},"properties":{"name":"UPC Las Orquídeas","amenity":"police","osm_id":"way/1556690372","source":"OpenStreetMap"}}]}