{"type":"FeatureCollection","features":[{"type":"Feature","geometry":{"type":"Point","coordinates":[-79.910573,-1.7958797]},"properties":{"name":"El Playón","place":"hamlet","osm_id":"node/249420618","source":"OpenStreetMap"}},{"type":"Feature","geometry":{"type":"Point","coordinates":[-79.8284081,-1.9085782]},"properties":{"name":"Alborada","place":"hamlet","osm_id":"node/249420643","source":"OpenStreetMap"}},{"type":"Feature","geometry":{"type":"Point","coordinates":[-79.856282,-1.7509473]},"properties":{"name":"La Leonora","place":"hamlet","osm_id":"node/249420743","source":"OpenStreetMap"}},{"type":"Feature","geometry":{"type":"Point","coordinates":[-80.0494972,-1.8801459]},"properties":{"name":"El Salado","place":"hamlet","osm_id":"node/249420791","source":"OpenStreetMap"}},{"type":"Feature","geometry":{"type":"Point","coordinates":[-79.8098319,-1.8336576]},"properties":{"name":"Duran Chiquito","place":"hamlet","osm_id":"node/249420934","source":"OpenStreetMap"}},{"type":"Feature","geometry":{"type":"Point","coordinates":[-79.9167835,-1.9394654]},"properties":{"name":"Guachapeli","place":"hamlet","osm_id":"node/249420942","source":"OpenStreetMap"}},{"type":"Feature","geometry":{"type":"Point","coordinates":[-79.7950488,-1.8620266]},"properties":{"name":"San Eloy","place":"hamlet","osm_id":"node/249420947","source":"OpenStreetMap"}},{"type":"Feature","geometry":{"type":"Point","coordinates":[-79.816271,-2.06835]},"properties":{"name":"Barranco","place":"village","osm_id":"node/249420990","source":"OpenStreetMap"}},{"type":"Feature","geometry":{"type":"Point","coordinates":[-79.8850352,-1.9452437]},"properties":{"name":"La Beldaca","place":"hamlet","osm_id":"node/249421003","source":"OpenStreetMap"}},{"type":"Feature","geometry":{"type":"Point","coordinates":[-79.8361869,-1.8531054]},"properties":{"name":"San Gregorio","place":"hamlet","osm_id":"node/249421780","source":"OpenStreetMap"}},{"type":"Feature","geometry":{"type":"Point","coordinates":[-79.9251176,-1.8216904]},"properties":{"name":"Judipa","place":"hamlet","osm_id":"node/249421785","source":"OpenStreetMap"}},{"type":"Feature","geometry":{"type":"Point","coordinates":[-79.8522372,-1.7611993]},"properties":{"name":"Tierra Blanca","place":"hamlet","osm_id":"node/249421829","source":"OpenStreetMap"}},{"type":"Feature","geometry":{"type":"Point","coordinates":[-80.0269987,-1.7521299]},"properties":{"name":"Bermejo de Abajo","place":"hamlet","osm_id":"node/249421835","source":"OpenStreetMap"}},{"type":"Feature","geometry":{"type":"Point","coordinates":[-79.8081983,-2.0235033]},"properties":{"name":"Bellavista","place":"hamlet","osm_id":"node/249421854","source":"OpenStreetMap"}},{"type":"Feature","geometry":{"type":"Point","coordinates":[-79.9364602,-1.8018766]},"properties":{"name":"La Vuelta","place":"hamlet","osm_id":"node/249421881","source":"OpenStreetMap"}},{"type":"Feature","geometry":{"type":"Point","coordinates":[-79.816667,-1.833333]},"properties":{"name":"Bocana","place":"hamlet","osm_id":"node/249421889","source":"OpenStreetMap"}},{"type":"Feature","geometry":{"type":"Point","coordinates":[-79.8142208,-1.7719002]},"properties":{"place":"hamlet","osm_id":"node/249421922","source":"OpenStreetMap"}},{"type":"Feature","geometry":{"type":"Point","coordinates":[-79.9178835,-1.8935298]},"properties":{"name":"Bramadero","place":"hamlet","osm_id":"node/249421937","source":"OpenStreetMap"}},{"type":"Feature","geometry":{"type":"Point","coordinates":[-79.7800491,-1.810936]},"properties":{"name":"Canango","place":"hamlet","osm_id":"node/249421945","source":"OpenStreetMap"}},{"type":"Feature","geometry":{"type":"Point","coordinates":[-79.9988155,-1.8971177]},"properties":{"name":"Canaán","place":"hamlet","osm_id":"node/249422117","source":"OpenStreetMap"}},{"type":"Feature","geometry":{"type":"Point","coordinates":[-79.9384285,-2.0348423]},"properties":{"name":"Candelaria","place":"village","osm_id":"node/249422182","source":"OpenStreetMap"}},{"type":"Feature","geometry":{"type":"Point","coordinates":[-79.8175933,-1.8454408]},"properties":{"name":"Briceño","place":"hamlet","osm_id":"node/249422189","source":"OpenStreetMap"}},{"type":"Feature","geometry":{"type":"Point","coordinates":[-79.9664893,-1.9997487]},"properties":{"name":"Cecilia","place":"village","osm_id":"node/249422497","source":"OpenStreetMap"}},{"type":"Feature","geometry":{"type":"Point","coordinates":[-80.013787,-1.9457159]},"properties":{"name":"Chiveria","place":"hamlet","osm_id":"node/249422624","source":"OpenStreetMap"}},{"type":"Feature","geometry":{"type":"Point","coordinates":[-80.0012394,-1.8258082]},"properties":{"name":"Valdivia del Frente","place":"hamlet","osm_id":"node/249422803","source":"OpenStreetMap"}},{"type":"Feature","geometry":{"type":"Point","coordinates":[-79.8586567,-1.7846867]},"properties":{"name":"Compoña","place":"hamlet","osm_id":"node/249422808","source":"OpenStreetMap"}},{"type":"Feature","geometry":{"type":"Point","coordinates":[-79.8619785,-1.861002]},"properties":{"name":"Zapanal","place":"hamlet","osm_id":"node/249422852","source":"OpenStreetMap"}},{"type":"Feature","geometry":{"type":"Point","coordinates":[-79.9623596,-1.7785703]},"properties":{"name":"Sartanejal","place":"hamlet","osm_id":"node/249422963","source":"OpenStreetMap"}},{"type":"Feature","geometry":{"type":"Point","coordinates":[-79.9195852,-1.9215205]},"properties":{"name":"La Union","place":"hamlet","osm_id":"node/249422974","source":"OpenStreetMap"}},{"type":"Feature","geometry":{"type":"Point","coordinates":[-79.9310156,-1.956727]},"properties":{"name":"Los Limos","place":"hamlet","osm_id":"node/249423128","source":"OpenStreetMap"}},{"type":"Feature","geometry":{"type":"Point","coordinates":[-79.8365209,-1.9091342]},"properties":{"name":"El Cruce","place":"hamlet","osm_id":"node/249423183","source":"OpenStreetMap"}},{"type":"Feature","geometry":{"type":"Point","coordinates":[-79.9137385,-1.9844052]},"properties":{"name":"La Envidia","place":"hamlet","osm_id":"node/249423218","source":"OpenStreetMap"}},{"type":"Feature","geometry":{"type":"Point","coordinates":[-79.8170962,-1.787428]},"properties":{"name":"Pajagual","place":"hamlet","osm_id":"node/249423222","source":"OpenStreetMap"}},{"type":"Feature","geometry":{"type":"Point","coordinates":[-79.864677,-1.7760409]},"properties":{"name":"Delicia","place":"village","osm_id":"node/249423223","source":"OpenStreetMap"}},{"type":"Feature","geometry":{"type":"Point","coordinates":[-79.8105515,-1.7685114]},"properties":{"name":"Deseo","place":"hamlet","osm_id":"node/249423239","source":"OpenStreetMap"}},{"type":"Feature","geometry":{"type":"Point","coordinates":[-79.8585867,-1.8203707]},"properties":{"name":"El Tambor","place":"hamlet","osm_id":"node/249423272","source":"OpenStreetMap"}},{"type":"Feature","geometry":{"type":"Point","coordinates":[-80.009703,-1.9682521]},"properties":{"name":"Petrillo","place":"village","osm_id":"node/249423313","source":"OpenStreetMap"}},{"type":"Feature","geometry":{"type":"Point","coordinates":[-79.8621003,-1.8679981]},"properties":{"name":"El Patrimonio","place":"hamlet","osm_id":"node/249423320","source":"OpenStreetMap"}},{"type":"Feature","geometry":{"type":"Point","coordinates":[-79.8129784,-2.0128123]},"properties":{"name":"San Luis","place":"hamlet","osm_id":"node/249423389","source":"OpenStreetMap"}},{"type":"Feature","geometry":{"type":"Point","coordinates":[-79.8022028,-2.0228065]},"properties":{"name":"El Rosario","place":"hamlet","osm_id":"node/249423390","source":"OpenStreetMap"}},{"type":"Feature","geometry":{"type":"Point","coordinates":[-80.0225035,-1.7694552]},"properties":{"name":"San Jacinto","place":"hamlet","osm_id":"node/249423403","source":"OpenStreetMap"}},{"type":"Feature","geometry":{"type":"Point","coordinates":[-79.7921103,-1.7688353]},"properties":{"name":"El Golfo","place":"hamlet","osm_id":"node/249423418","source":"OpenStreetMap"}},{"type":"Feature","geometry":{"type":"Point","coordinates":[-80.0086608,-1.7699683]},"properties":{"name":"El Mate","place":"village","osm_id":"node/249423536","source":"OpenStreetMap"}},{"type":"Feature","geometry":{"type":"Point","coordinates":[-80.0043851,-1.9773431]},"properties":{"name":"El Nato","place":"hamlet","osm_id":"node/249423553","source":"OpenStreetMap"}},{"type":"Feature","geometry":{"type":"Point","coordinates":[-79.9041198,-1.9229291]},"properties":{"name":"El Naranjo","place":"village","osm_id":"node/249423554","source":"OpenStreetMap"}},{"type":"Feature","geometry":{"type":"Point","coordinates":[-79.7854879,-1.866531]},"properties":{"name":"Piedad","place":"hamlet","osm_id":"node/249423579","source":"OpenStreetMap"}},{"type":"Feature","geometry":{"type":"Point","coordinates":[-79.966667,-2.016667]},"properties":{"name":"Envidia","place":"village","osm_id":"node/249423586","source":"OpenStreetMap"}},{"type":"Feature","geometry":{"type":"Point","coordinates":[-79.8635342,-1.7966114]},"properties":{"name":"El Tuco","place":"hamlet","osm_id":"node/249423588","source":"OpenStreetMap"}},{"type":"Feature","geometry":{"type":"Point","coordinates":[-79.8048137,-1.8627766]},"properties":{"name":"Rabasco","place":"hamlet","osm_id":"node/249423598","source":"OpenStreetMap"}},{"type":"Feature","geometry":{"type":"Point","coordinates":[-80.0108031,-1.8497572]},"properties":{"name":"Brisas de Daule","place":"hamlet","osm_id":"node/249423600","source":"OpenStreetMap"}},{"type":"Feature","geometry":{"type":"Point","coordinates":[-79.7824318,-1.8024342]},"properties":{"name":"Los Campos","place":"hamlet","osm_id":"node/249423624","source":"OpenStreetMap"}},{"type":"Feature","geometry":{"type":"Point","coordinates":[-79.8826898,-1.7718422]},"properties":{"name":"La Chontilla","place":"hamlet","osm_id":"node/249423630","source":"OpenStreetMap"}},{"type":"Feature","geometry":{"type":"Point","coordinates":[-79.9832176,-1.8099102]},"properties":{"name":"El Prado","place":"hamlet","osm_id":"node/249423702","source":"OpenStreetMap"}},{"type":"Feature","geometry":{"type":"Point","coordinates":[-79.8490863,-1.9012364]},"properties":{"name":"La Granada","place":"hamlet","osm_id":"node/249423710","source":"OpenStreetMap"}},{"type":"Feature","geometry":{"type":"Point","coordinates":[-79.9747029,-1.8673923]},"properties":{"name":"El Triunfo","place":"neighbourhood","osm_id":"node/249423717","source":"OpenStreetMap"}},{"type":"Feature","geometry":{"type":"Point","coordinates":[-79.7883109,-1.7848075]},"properties":{"name":"Guachapelí","place":"village","osm_id":"node/249423737","source":"OpenStreetMap"}},{"type":"Feature","geometry":{"type":"Point","coordinates":[-80.0170609,-1.8680063]},"properties":{"name":"Graciela","place":"village","osm_id":"node/249423748","source":"OpenStreetMap"}},{"type":"Feature","geometry":{"type":"Point","coordinates":[-79.8210873,-1.831465]},"properties":{"name":"Fortuna","place":"hamlet","osm_id":"node/249423855","source":"OpenStreetMap"}},{"type":"Feature","geometry":{"type":"Point","coordinates":[-79.8826249,-1.8043752]},"properties":{"name":"El Guabo","place":"hamlet","osm_id":"node/249423870","source":"OpenStreetMap"}},{"type":"Feature","geometry":{"type":"Point","coordinates":[-79.7899332,-1.8681957]},"properties":{"name":"Holanda","place":"hamlet","osm_id":"node/249423897","source":"OpenStreetMap"}},{"type":"Feature","geometry":{"type":"Point","coordinates":[-79.8763966,-1.7953916]},"properties":{"name":"Garza","place":"hamlet","osm_id":"node/249423923","source":"OpenStreetMap"}},{"type":"Feature","geometry":{"type":"Point","coordinates":[-79.790176,-1.7620013]},"properties":{"name":"General Vernaza","place":"village","osm_id":"node/249423937","source":"OpenStreetMap"}},{"type":"Feature","geometry":{"type":"Point","coordinates":[-79.8340148,-1.9972862]},"properties":{"name":"La Daclea","place":"hamlet","osm_id":"node/249424065","source":"OpenStreetMap"}},{"type":"Feature","geometry":{"type":"Point","coordinates":[-79.7884165,-1.822715]},"properties":{"name":"La Fortuna","place":"hamlet","osm_id":"node/249428569","source":"OpenStreetMap"}},{"type":"Feature","geometry":{"type":"Point","coordinates":[-80.0172825,-1.9516002]},"properties":{"name":"La Delicia","place":"village","osm_id":"node/249428830","source":"OpenStreetMap"}},{"type":"Feature","geometry":{"type":"Point","coordinates":[-79.966664,-1.9999923]},"properties":{"name":"La Estada","place":"village","osm_id":"node/249429046","source":"OpenStreetMap"}},{"type":"Feature","geometry":{"type":"Point","coordinates":[-80.0070607,-1.746623]},"properties":{"name":"Fatima","place":"hamlet","osm_id":"node/249429075","source":"OpenStreetMap"}},{"type":"Feature","geometry":{"type":"Point","coordinates":[-79.95,-2.033333]},"properties":{"name":"La Germania","place":"village","osm_id":"node/249429100","source":"OpenStreetMap"}},{"type":"Feature","geometry":{"type":"Point","coordinates":[-79.9716594,-1.9659698]},"properties":{"name":"El Tape","place":"hamlet","osm_id":"node/249429122","source":"OpenStreetMap"}},{"type":"Feature","geometry":{"type":"Point","coordinates":[-79.9974876,-1.9153073]},"properties":{"name":"La Granja","place":"village","osm_id":"node/249429147","source":"OpenStreetMap"}},{"type":"Feature","geometry":{"type":"Point","coordinates":[-80.0222573,-1.8303764]},"properties":{"name":"Guanchichal","place":"hamlet","osm_id":"node/249429194","source":"OpenStreetMap"}},{"type":"Feature","geometry":{"type":"Point","coordinates":[-79.8845827,-1.7387379]},"properties":{"name":"La Armenia 2","place":"hamlet","osm_id":"node/249429199","source":"OpenStreetMap"}},{"type":"Feature","geometry":{"type":"Point","coordinates":[-79.95,-1.9]},"properties":{"name":"La Auxiliadora","place":"village","osm_id":"node/249429210","source":"OpenStreetMap"}},{"type":"Feature","geometry":{"type":"Point","coordinates":[-79.8046168,-1.8486622]},"properties":{"name":"La Bocana de Abajo","place":"village","osm_id":"node/249429226","source":"OpenStreetMap"}},{"type":"Feature","geometry":{"type":"Point","coordinates":[-79.9678986,-1.9596463]},"properties":{"name":"Dos Bocas","place":"hamlet","osm_id":"node/249429245","source":"OpenStreetMap"}},{"type":"Feature","geometry":{"type":"Point","coordinates":[-79.8494365,-1.8678309]},"properties":{"name":"Casa Grande","place":"hamlet","osm_id":"node/249429327","source":"OpenStreetMap"}},{"type":"Feature","geometry":{"type":"Point","coordinates":[-79.7818474,-1.8713596]},"properties":{"name":"La Fe","place":"hamlet","osm_id":"node/249429352","source":"OpenStreetMap"}},{"type":"Feature","geometry":{"type":"Point","coordinates":[-79.8298569,-1.8467831]},"properties":{"name":"Judhit","place":"hamlet","osm_id":"node/249429355","source":"OpenStreetMap"}},{"type":"Feature","geometry":{"type":"Point","coordinates":[-80.0143608,-1.7897772]},"properties":{"name":"La Elvira","place":"hamlet","osm_id":"node/249429373","source":"OpenStreetMap"}},{"type":"Feature","geometry":{"type":"Point","coordinates":[-79.8622272,-1.8757213]},"properties":{"name":"Juan Bautista Aguirre","place":"village","osm_id":"node/249429377","source":"OpenStreetMap"}},{"type":"Feature","geometry":{"type":"Point","coordinates":[-79.9215364,-1.799581]},"properties":{"name":"San Vicente","place":"hamlet","osm_id":"node/249429382","source":"OpenStreetMap"}},{"type":"Feature","geometry":{"type":"Point","coordinates":[-79.7891915,-1.9805595]},"properties":{"name":"Guare Firme","place":"hamlet","osm_id":"node/249429407","source":"OpenStreetMap"}},{"type":"Feature","geometry":{"type":"Point","coordinates":[-79.7902827,-1.835189]},"properties":{"name":"Playones de Adentro","place":"hamlet","osm_id":"node/249429427","source":"OpenStreetMap"}},{"type":"Feature","geometry":{"type":"Point","coordinates":[-79.8686738,-1.9821822]},"properties":{"name":"Resistencia","place":"hamlet","osm_id":"node/249429437","source":"OpenStreetMap"}},{"type":"Feature","geometry":{"type":"Point","coordinates":[-79.9977167,-1.8174654]},"properties":{"name":"Clariza","place":"hamlet","osm_id":"node/249429450","source":"OpenStreetMap"}},{"type":"Feature","geometry":{"type":"Point","coordinates":[-79.9936717,-1.7931932]},"properties":{"name":"San Lorenzo","place":"hamlet","osm_id":"node/249429456","source":"OpenStreetMap"}},{"type":"Feature","geometry":{"type":"Point","coordinates":[-79.95,-1.883333]},"properties":{"name":"Javilla","place":"hamlet","osm_id":"node/249429468","source":"OpenStreetMap"}},{"type":"Feature","geometry":{"type":"Point","coordinates":[-79.7814416,-2.0727097]},"properties":{"name":"La Providencia","place":"hamlet","osm_id":"node/249429483","source":"OpenStreetMap"}},{"type":"Feature","geometry":{"type":"Point","coordinates":[-80.0118176,-1.9600619]},"properties":{"name":"Barrio Lindo","place":"hamlet","osm_id":"node/249429492","source":"OpenStreetMap"}},{"type":"Feature","geometry":{"type":"Point","coordinates":[-79.9096547,-1.7838045]},"properties":{"name":"Laurel","place":"village","osm_id":"node/249429501","source":"OpenStreetMap"}},{"type":"Feature","geometry":{"type":"Point","coordinates":[-79.952169,-1.7814112]},"properties":{"name":"Las Piñas","place":"hamlet","osm_id":"node/249429519","source":"OpenStreetMap"}},{"type":"Feature","geometry":{"type":"Point","coordinates":[-80.1,-1.866667]},"properties":{"name":"Las Lomas de Arriba","place":"village","osm_id":"node/249429575","source":"OpenStreetMap"}},{"type":"Feature","geometry":{"type":"Point","coordinates":[-79.9356405,-1.8866271]},"properties":{"name":"Las Maravillas","place":"hamlet","osm_id":"node/249429588","source":"OpenStreetMap"}},{"type":"Feature","geometry":{"type":"Point","coordinates":[-79.8560138,-1.8827467]},"properties":{"name":"Los Angeles","place":"hamlet","osm_id":"node/249429594","source":"OpenStreetMap"}},{"type":"Feature","geometry":{"type":"Point","coordinates":[-79.9576733,-1.88664]},"properties":{"name":"El Cerrito","place":"hamlet","osm_id":"node/249429599","source":"OpenStreetMap"}},{"type":"Feature","geometry":{"type":"Point","coordinates":[-80.0797519,-1.8301577]},"properties":{"name":"Las Cañas","place":"village","osm_id":"node/249429626","source":"OpenStreetMap"}},{"type":"Feature","geometry":{"type":"Point","coordinates":[-79.9965509,-1.7897558]},"properties":{"name":"Colorado de Abajo","place":"hamlet","osm_id":"node/249429639","source":"OpenStreetMap"}},{"type":"Feature","geometry":{"type":"Point","coordinates":[-79.9810222,-1.820136]},"properties":{"name":"Las Ánimas","place":"hamlet","osm_id":"node/249429640","source":"OpenStreetMap"}},{"type":"Feature","geometry":{"type":"Point","coordinates":[-79.9664632,-1.7491743]},"properties":{"name":"Paypayales","place":"hamlet","osm_id":"node/249429646","source":"OpenStreetMap"}},{"type":"Feature","geometry":{"type":"Point","coordinates":[-79.907588,-1.9788016]},"properties":{"name":"Potrerillo","place":"hamlet","osm_id":"node/249429648","source":"OpenStreetMap"}},{"type":"Feature","geometry":{"type":"Point","coordinates":[-79.8815801,-1.8705028]},"properties":{"name":"Recinto La T","place":"hamlet","osm_id":"node/249429670","source":"OpenStreetMap"}},{"type":"Feature","geometry":{"type":"Point","coordinates":[-79.8560245,-1.7959976]},"properties":{"name":"La Palmita","place":"hamlet","osm_id":"node/249429708","source":"OpenStreetMap"}},{"type":"Feature","geometry":{"type":"Point","coordinates":[-79.8294062,-1.8295155]},"properties":{"name":"Pitaya","place":"hamlet","osm_id":"node/249429746","source":"OpenStreetMap"}},{"type":"Feature","geometry":{"type":"Point","coordinates":[-79.9474251,-1.7571206]},"properties":{"name":"San Andres","place":"hamlet","osm_id":"node/249429749","source":"OpenStreetMap"}},{"type":"Feature","geometry":{"type":"Point","coordinates":[-79.9615013,-1.9047217]},"properties":{"name":"Santa Rosa","place":"hamlet","osm_id":"node/249429769","source":"OpenStreetMap"}},{"type":"Feature","geometry":{"type":"Point","coordinates":[-79.8110777,-1.7664861]},"properties":{"name":"La Julia","place":"hamlet","osm_id":"node/249429777","source":"OpenStreetMap"}},{"type":"Feature","geometry":{"type":"Point","coordinates":[-79.846835,-1.7895098]},"properties":{"name":"La Crucita","place":"hamlet","osm_id":"node/249429792","source":"OpenStreetMap"}},{"type":"Feature","geometry":{"type":"Point","coordinates":[-79.8345934,-1.7912041]},"properties":{"name":"La Hortiguilla","place":"hamlet","osm_id":"node/249429843","source":"OpenStreetMap"}},{"type":"Feature","geometry":{"type":"Point","coordinates":[-79.8331082,-1.8651406]},"properties":{"name":"Luz Maria","place":"hamlet","osm_id":"node/249429934","source":"OpenStreetMap"}},{"type":"Feature","geometry":{"type":"Point","coordinates":[-79.8028268,-1.9585741]},"properties":{"name":"Margarita","place":"hamlet","osm_id":"node/249430270","source":"OpenStreetMap"}},{"type":"Feature","geometry":{"type":"Point","coordinates":[-79.8600187,-1.8748941]},"properties":{"name":"Nueva Ilusion","place":"hamlet","osm_id":"node/249430283","source":"OpenStreetMap"}},{"type":"Feature","geometry":{"type":"Point","coordinates":[-79.801336,-1.8192621]},"properties":{"name":"Tres Mangos","place":"hamlet","osm_id":"node/249430477","source":"OpenStreetMap"}},{"type":"Feature","geometry":{"type":"Point","coordinates":[-79.9071914,-1.7565554]},"properties":{"name":"Maderas Negras","place":"hamlet","osm_id":"node/249596115","source":"OpenStreetMap"}},{"type":"Feature","geometry":{"type":"Point","coordinates":[-80.0174287,-1.8936378]},"properties":{"name":"Pajonal","place":"hamlet","osm_id":"node/249596125","source":"OpenStreetMap"}},{"type":"Feature","geometry":{"type":"Point","coordinates":[-80.0047312,-1.8833633]},"properties":{"name":"Magro","place":"village","osm_id":"node/249596126","source":"OpenStreetMap"}},{"type":"Feature","geometry":{"type":"Point","coordinates":[-79.973441,-1.7719323]},"properties":{"name":"Los Ángeles","place":"hamlet","osm_id":"node/249596159","source":"OpenStreetMap"}},{"type":"Feature","geometry":{"type":"Point","coordinates":[-79.8914169,-1.8442984]},"properties":{"name":"Recinto Los Quemados","place":"hamlet","osm_id":"node/249596160","source":"OpenStreetMap"}},{"type":"Feature","geometry":{"type":"Point","coordinates":[-80.04801,-1.8199646]},"properties":{"name":"Los Pozos","place":"hamlet","osm_id":"node/249596173","source":"OpenStreetMap"}},{"type":"Feature","geometry":{"type":"Point","coordinates":[-79.9027159,-1.8748403]},"properties":{"name":"Cocal","place":"hamlet","osm_id":"node/249596186","source":"OpenStreetMap"}},{"type":"Feature","geometry":{"type":"Point","coordinates":[-79.9442493,-1.785831]},"properties":{"name":"Río Nuevo","place":"hamlet","osm_id":"node/249596189","source":"OpenStreetMap"}},{"type":"Feature","geometry":{"type":"Point","coordinates":[-79.9156935,-1.7483312]},"properties":{"name":"Los Callejones","place":"village","osm_id":"node/249596216","source":"OpenStreetMap"}},{"type":"Feature","geometry":{"type":"Point","coordinates":[-79.8009106,-2.0554562]},"properties":{"name":"Cáliz 1","place":"hamlet","osm_id":"node/249596217","source":"OpenStreetMap"}},{"type":"Feature","geometry":{"type":"Point","coordinates":[-79.9032298,-1.9707647]},"properties":{"name":"Loma de León","place":"hamlet","osm_id":"node/249596243","source":"OpenStreetMap"}},{"type":"Feature","geometry":{"type":"Point","coordinates":[-80.0814602,-1.8808196]},"properties":{"name":"Lomas de Sargentillo","place":"town","osm_id":"node/249596246","source":"OpenStreetMap"}},{"type":"Feature","geometry":{"type":"Point","coordinates":[-80.0061406,-1.7926721]},"properties":{"name":"Limonal","place":"hamlet","osm_id":"node/249596261","source":"OpenStreetMap"}},{"type":"Feature","geometry":{"type":"Point","coordinates":[-79.9667528,-1.7994424]},"properties":{"name":"Los Jazmines de Arriba","place":"hamlet","osm_id":"node/249596293","source":"OpenStreetMap"}},{"type":"Feature","geometry":{"type":"Point","coordinates":[-79.95,-2.0506416]},"properties":{"name":"La Vielocia","place":"village","osm_id":"node/249596304","source":"OpenStreetMap"}},{"type":"Feature","geometry":{"type":"Point","coordinates":[-79.8287691,-1.8776927]},"properties":{"name":"Carretones","place":"hamlet","osm_id":"node/249596341","source":"OpenStreetMap"}},{"type":"Feature","geometry":{"type":"Point","coordinates":[-79.8002819,-1.8101557]},"properties":{"name":"Palo Seco","place":"hamlet","osm_id":"node/249596427","source":"OpenStreetMap"}},{"type":"Feature","geometry":{"type":"Point","coordinates":[-79.9383541,-2.0353273]},"properties":{"name":"Palma Sola","place":"village","osm_id":"node/249596450","source":"OpenStreetMap"}},{"type":"Feature","geometry":{"type":"Point","coordinates":[-79.8884987,-1.9726716]},"properties":{"name":"Palo de Iguana","place":"hamlet","osm_id":"node/249596454","source":"OpenStreetMap"}},{"type":"Feature","geometry":{"type":"Point","coordinates":[-79.9339983,-2.0695178]},"properties":{"name":"Pascuales","place":"suburb","osm_id":"node/249596510","source":"OpenStreetMap"}},{"type":"Feature","geometry":{"type":"Point","coordinates":[-80.0,-1.933333]},"properties":{"name":"Paraíso","place":"hamlet","osm_id":"node/249596555","source":"OpenStreetMap"}},{"type":"Feature","geometry":{"type":"Point","coordinates":[-80.0,-1.9]},"properties":{"name":"Piedrahíta","place":"hamlet","osm_id":"node/249596598","source":"OpenStreetMap"}},{"type":"Feature","geometry":{"type":"Point","coordinates":[-79.7799432,-1.8797659]},"properties":{"name":"Banco de Jaboncillo Afuera","place":"hamlet","osm_id":"node/249596613","source":"OpenStreetMap"}},{"type":"Feature","geometry":{"type":"Point","coordinates":[-79.916667,-1.75]},"properties":{"name":"Mercedes","place":"village","osm_id":"node/249596670","source":"OpenStreetMap"}},{"type":"Feature","geometry":{"type":"Point","coordinates":[-79.8060776,-1.754697]},"properties":{"name":"Mastrantal","place":"hamlet","osm_id":"node/249596711","source":"OpenStreetMap"}},{"type":"Feature","geometry":{"type":"Point","coordinates":[-79.8464623,-1.799789]},"properties":{"name":"Mina de Oro","place":"hamlet","osm_id":"node/249596766","source":"OpenStreetMap"}},{"type":"Feature","geometry":{"type":"Point","coordinates":[-79.9150418,-1.808522]},"properties":{"name":"San Felipe","place":"hamlet","osm_id":"node/249596767","source":"OpenStreetMap"}},{"type":"Feature","geometry":{"type":"Point","coordinates":[-79.8430712,-1.9867901]},"properties":{"name":"El Hormiguero","place":"hamlet","osm_id":"node/249596786","source":"OpenStreetMap"}},{"type":"Feature","geometry":{"type":"Point","coordinates":[-79.9893534,-1.8281384]},"properties":{"name":"Península","place":"hamlet","osm_id":"node/249596853","source":"OpenStreetMap"}},{"type":"Feature","geometry":{"type":"Point","coordinates":[-79.7830957,-1.8523731]},"properties":{"name":"Mosquiñana","place":"village","osm_id":"node/249596867","source":"OpenStreetMap"}},{"type":"Feature","geometry":{"type":"Point","coordinates":[-80.0117012,-1.9155898]},"properties":{"name":"Nobol","place":"town","osm_id":"node/249596888","source":"OpenStreetMap"}},{"type":"Feature","geometry":{"type":"Point","coordinates":[-79.8071882,-1.99224]},"properties":{"name":"General Gomez","place":"hamlet","osm_id":"node/249596889","source":"OpenStreetMap"}},{"type":"Feature","geometry":{"type":"Point","coordinates":[-79.9987396,-1.8426385]},"properties":{"name":"Ñaupe","place":"hamlet","osm_id":"node/249596938","source":"OpenStreetMap"}},{"type":"Feature","geometry":{"type":"Point","coordinates":[-79.9382683,-1.9451534]},"properties":{"name":"Lechugal","place":"hamlet","osm_id":"node/249596991","source":"OpenStreetMap"}},{"type":"Feature","geometry":{"type":"Point","coordinates":[-80.033333,-1.766667]},"properties":{"name":"Recreo","place":"hamlet","osm_id":"node/249597085","source":"OpenStreetMap"}},{"type":"Feature","geometry":{"type":"Point","coordinates":[-79.7825493,-1.8172862]},"properties":{"name":"La Morasca","place":"hamlet","osm_id":"node/249597138","source":"OpenStreetMap"}},{"type":"Feature","geometry":{"type":"Point","coordinates":[-79.9920351,-1.7670636]},"properties":{"name":"La Lorena","place":"hamlet","osm_id":"node/249597146","source":"OpenStreetMap"}},{"type":"Feature","geometry":{"type":"Point","coordinates":[-80.033333,-1.75]},"properties":{"name":"Rugel","place":"hamlet","osm_id":"node/249597191","source":"OpenStreetMap"}},{"type":"Feature","geometry":{"type":"Point","coordinates":[-79.9487677,-1.974858]},"properties":{"name":"El Rincón","place":"hamlet","osm_id":"node/249597195","source":"OpenStreetMap"}},{"type":"Feature","geometry":{"type":"Point","coordinates":[-79.8884185,-1.8488419]},"properties":{"name":"Recinto La Isabel","place":"hamlet","osm_id":"node/249597209","source":"OpenStreetMap"}},{"type":"Feature","geometry":{"type":"Point","coordinates":[-79.9673772,-2.017692]},"properties":{"name":"Rosa Elvira","place":"village","osm_id":"node/249597215","source":"OpenStreetMap"}},{"type":"Feature","geometry":{"type":"Point","coordinates":[-79.833333,-2.1]},"properties":{"name":"Sabanilla","place":"village","osm_id":"node/249597268","source":"OpenStreetMap"}},{"type":"Feature","geometry":{"type":"Point","coordinates":[-80.0319003,-1.79939]},"properties":{"name":"Piñal del Frente","place":"hamlet","osm_id":"node/249597468","source":"OpenStreetMap"}},{"type":"Feature","geometry":{"type":"Point","coordinates":[-79.9033852,-1.8579705]},"properties":{"name":"Porotillo","place":"hamlet","osm_id":"node/249597597","source":"OpenStreetMap"}},{"type":"Feature","geometry":{"type":"Point","coordinates":[-79.983333,-2.0]},"properties":{"name":"Porvenir","place":"village","osm_id":"node/249597624","source":"OpenStreetMap"}},{"type":"Feature","geometry":{"type":"Point","coordinates":[-79.8524083,-1.8994746]},"properties":{"name":"La Primavera","place":"hamlet","osm_id":"node/249597626","source":"OpenStreetMap"}},{"type":"Feature","geometry":{"type":"Point","coordinates":[-79.8979611,-1.7756453]},"properties":{"name":"Potosí","place":"hamlet","osm_id":"node/249597629","source":"OpenStreetMap"}},{"type":"Feature","geometry":{"type":"Point","coordinates":[-79.9380812,-1.7870228]},"properties":{"name":"Desvia a la Vuelta","place":"hamlet","osm_id":"node/249597631","source":"OpenStreetMap"}},{"type":"Feature","geometry":{"type":"Point","coordinates":[-79.7839604,-1.8727795]},"properties":{"name":"Paula Leon","place":"hamlet","osm_id":"node/249597656","source":"OpenStreetMap"}},{"type":"Feature","geometry":{"type":"Point","coordinates":[-79.8445143,-1.837058]},"properties":{"name":"Providencia","place":"hamlet","osm_id":"node/249597664","source":"OpenStreetMap"}},{"type":"Feature","geometry":{"type":"Point","coordinates":[-79.8737158,-1.8723418]},"properties":{"name":"Los Amarillos","place":"hamlet","osm_id":"node/249597674","source":"OpenStreetMap"}},{"type":"Feature","geometry":{"type":"Point","coordinates":[-79.9657465,-2.0158864]},"properties":{"name":"Providencia","place":"village","osm_id":"node/249597707","source":"OpenStreetMap"}},{"type":"Feature","geometry":{"type":"Point","coordinates":[-79.9472577,-1.7999185]},"properties":{"name":"Pueblo Nuevo","place":"hamlet","osm_id":"node/249597767","source":"OpenStreetMap"}},{"type":"Feature","geometry":{"type":"Point","coordinates":[-79.9327965,-1.8987668]},"properties":{"name":"Buena Vista","place":"hamlet","osm_id":"node/249597817","source":"OpenStreetMap"}},{"type":"Feature","geometry":{"type":"Point","coordinates":[-79.8348369,-2.0759806]},"properties":{"name":"San Nicolás","place":"hamlet","osm_id":"node/249597907","source":"OpenStreetMap"}},{"type":"Feature","geometry":{"type":"Point","coordinates":[-79.8680069,-1.8201462]},"properties":{"name":"San Nicolás","place":"hamlet","osm_id":"node/249597908","source":"OpenStreetMap"}},{"type":"Feature","geometry":{"type":"Point","coordinates":[-79.8905857,-1.8145164]},"properties":{"name":"Jigual de Arriba","place":"hamlet","osm_id":"node/249598342","source":"OpenStreetMap"}},{"type":"Feature","geometry":{"type":"Point","coordinates":[-79.8640026,-2.0032409]},"properties":{"name":"San Guillermo","place":"hamlet","osm_id":"node/249598370","source":"OpenStreetMap"}},{"type":"Feature","geometry":{"type":"Point","coordinates":[-80.0,-1.95]},"properties":{"name":"San Luis","place":"hamlet","osm_id":"node/249598388","source":"OpenStreetMap"}},{"type":"Feature","geometry":{"type":"Point","coordinates":[-79.8774929,-1.9681787]},"properties":{"name":"San Jacinto","place":"hamlet","osm_id":"node/249598583","source":"OpenStreetMap"}},{"type":"Feature","geometry":{"type":"Point","coordinates":[-80.0173858,-1.7588686]},"properties":{"name":"Santa Clara","place":"hamlet","osm_id":"node/249598640","source":"OpenStreetMap"}},{"type":"Feature","geometry":{"type":"Point","coordinates":[-79.8706745,-1.8411426]},"properties":{"name":"Bapado de Abajo","place":"hamlet","osm_id":"node/249598690","source":"OpenStreetMap"}},{"type":"Feature","geometry":{"type":"Point","coordinates":[-79.9697998,-1.9088822]},"properties":{"name":"Cascol","place":"hamlet","osm_id":"node/249598699","source":"OpenStreetMap"}},{"type":"Feature","geometry":{"type":"Point","coordinates":[-79.9889278,-1.7541416]},"properties":{"name":"El Mangle","place":"hamlet","osm_id":"node/249598707","source":"OpenStreetMap"}},{"type":"Feature","geometry":{"type":"Point","coordinates":[-79.8369202,-2.0539473]},"properties":{"name":"Barranca","place":"village","osm_id":"node/249598724","source":"OpenStreetMap"}},{"type":"Feature","geometry":{"type":"Point","coordinates":[-79.9239917,-1.781335]},"properties":{"name":"El Salto","place":"hamlet","osm_id":"node/249598780","source":"OpenStreetMap"}},{"type":"Feature","geometry":{"type":"Point","coordinates":[-79.9552515,-2.0071795]},"properties":{"name":"La Estragada","place":"village","osm_id":"node/249598781","source":"OpenStreetMap"}},{"type":"Feature","geometry":{"type":"Point","coordinates":[-79.811898,-1.7887671]},"properties":{"name":"Roque","place":"hamlet","osm_id":"node/249598801","source":"OpenStreetMap"}},{"type":"Feature","geometry":{"type":"Point","coordinates":[-79.8335756,-1.7638159]},"properties":{"name":"Faizan","place":"hamlet","osm_id":"node/249598822","source":"OpenStreetMap"}},{"type":"Feature","geometry":{"type":"Point","coordinates":[-79.8238058,-1.816667]},"properties":{"name":"Candilejo de Abajo","place":"hamlet","osm_id":"node/249598836","source":"OpenStreetMap"}},{"type":"Feature","geometry":{"type":"Point","coordinates":[-79.9488752,-1.9274599]},"properties":{"name":"Puerto Coquito","place":"hamlet","osm_id":"node/249598850","source":"OpenStreetMap"}},{"type":"Feature","geometry":{"type":"Point","coordinates":[-79.8104591,-1.9258886]},"properties":{"name":"San Antonio","place":"hamlet","osm_id":"node/249598851","source":"OpenStreetMap"}},{"type":"Feature","geometry":{"type":"Point","coordinates":[-79.8652157,-1.8323773]},"properties":{"name":"Bapado de Arriba","place":"hamlet","osm_id":"node/249598854","source":"OpenStreetMap"}},{"type":"Feature","geometry":{"type":"Point","coordinates":[-79.99334,-1.7955694]},"properties":{"name":"Jesús María","place":"hamlet","osm_id":"node/249598855","source":"OpenStreetMap"}},{"type":"Feature","geometry":{"type":"Point","coordinates":[-79.8482068,-1.8272666]},"properties":{"name":"San Antonio","place":"hamlet","osm_id":"node/249598857","source":"OpenStreetMap"}},{"type":"Feature","geometry":{"type":"Point","coordinates":[-79.8187323,-1.8289209]},"properties":{"name":"Salitre","place":"town","osm_id":"node/249598902","source":"OpenStreetMap"}},{"type":"Feature","geometry":{"type":"Point","coordinates":[-79.9671992,-1.9814416]},"properties":{"name":"Dos Revesa","place":"hamlet","osm_id":"node/249598906","source":"OpenStreetMap"}},{"type":"Feature","geometry":{"type":"Point","coordinates":[-79.9815035,-1.8738852]},"properties":{"name":"San José","place":"neighbourhood","osm_id":"node/249599006","source":"OpenStreetMap"}},{"type":"Feature","geometry":{"type":"Point","coordinates":[-79.8406501,-1.7788343]},"properties":{"name":"La Joya","place":"hamlet","osm_id":"node/249599015","source":"OpenStreetMap"}},{"type":"Feature","geometry":{"type":"Point","coordinates":[-80.05,-1.766667]},"properties":{"name":"San José","place":"hamlet","osm_id":"node/249599021","source":"OpenStreetMap"}},{"type":"Feature","geometry":{"type":"Point","coordinates":[-79.8102788,-2.0535978]},"properties":{"name":"Puntilla La Barranca","place":"hamlet","osm_id":"node/249599029","source":"OpenStreetMap"}},{"type":"Feature","geometry":{"type":"Point","coordinates":[-79.9388829,-1.8458881]},"properties":{"name":"Guarumal","place":"hamlet","osm_id":"node/249599039","source":"OpenStreetMap"}},{"type":"Feature","geometry":{"type":"Point","coordinates":[-79.8101588,-2.0305458]},"properties":{"name":"Santa Martha","place":"hamlet","osm_id":"node/249599104","source":"OpenStreetMap"}},{"type":"Feature","geometry":{"type":"Point","coordinates":[-79.8751802,-1.9733266]},"properties":{"name":"El Grillo","place":"hamlet","osm_id":"node/249599107","source":"OpenStreetMap"}},{"type":"Feature","geometry":{"type":"Point","coordinates":[-79.8226333,-1.9119651]},"properties":{"name":"San Gerónimo","place":"hamlet","osm_id":"node/249599125","source":"OpenStreetMap"}},{"type":"Feature","geometry":{"type":"Point","coordinates":[-79.9140333,-1.8451745]},"properties":{"name":"Clementina","place":"hamlet","osm_id":"node/249599168","source":"OpenStreetMap"}},{"type":"Feature","geometry":{"type":"Point","coordinates":[-79.9023333,-1.7925754]},"properties":{"name":"La Esperanza","place":"hamlet","osm_id":"node/249599169","source":"OpenStreetMap"}},{"type":"Feature","geometry":{"type":"Point","coordinates":[-79.9956492,-1.7798504]},"properties":{"name":"Rancho López","place":"hamlet","osm_id":"node/249599423","source":"OpenStreetMap"}},{"type":"Feature","geometry":{"type":"Point","coordinates":[-80.016667,-1.95]},"properties":{"name":"Tomasita","place":"village","osm_id":"node/249599563","source":"OpenStreetMap"}},{"type":"Feature","geometry":{"type":"Point","coordinates":[-80.033333,-1.966667]},"properties":{"name":"Tortura","place":"village","osm_id":"node/249599611","source":"OpenStreetMap"}},{"type":"Feature","geometry":{"type":"Point","coordinates":[-79.8050691,-1.9525051]},"properties":{"name":"Tutumbes","place":"hamlet","osm_id":"node/249599624","source":"OpenStreetMap"}},{"type":"Feature","geometry":{"type":"Point","coordinates":[-79.9804854,-1.8261559]},"properties":{"name":"San Vicente","place":"hamlet","osm_id":"node/249599641","source":"OpenStreetMap"}},{"type":"Feature","geometry":{"type":"Point","coordinates":[-79.8486975,-1.8523977]},"properties":{"name":"Los Sauces","place":"village","osm_id":"node/249599654","source":"OpenStreetMap"}},{"type":"Feature","geometry":{"type":"Point","coordinates":[-79.8636201,-1.903363]},"properties":{"name":"La Ceja","place":"hamlet","osm_id":"node/249599692","source":"OpenStreetMap"}},{"type":"Feature","geometry":{"type":"Point","coordinates":[-79.8513574,-1.8978125]},"properties":{"name":"San Vicente","place":"hamlet","osm_id":"node/249599699","source":"OpenStreetMap"}},{"type":"Feature","geometry":{"type":"Point","coordinates":[-79.9666724,-2.0000003]},"properties":{"name":"Susanita","place":"village","osm_id":"node/249599856","source":"OpenStreetMap"}},{"type":"Feature","geometry":{"type":"Point","coordinates":[-79.9119463,-1.9706987]},"properties":{"name":"Yolán","place":"hamlet","osm_id":"node/249600380","source":"OpenStreetMap"}},{"type":"Feature","geometry":{"type":"Point","coordinates":[-79.8907088,-1.8223737]},"properties":{"name":"Recinto Jigual de Abajo","place":"hamlet","osm_id":"node/249600596","source":"OpenStreetMap"}},{"type":"Feature","geometry":{"type":"Point","coordinates":[-79.9954271,-1.8193129]},"properties":{"name":"Valdivia","place":"hamlet","osm_id":"node/249600635","source":"OpenStreetMap"}},{"type":"Feature","geometry":{"type":"Point","coordinates":[-80.0160503,-1.8091177]},"properties":{"name":"La Estancia","place":"hamlet","osm_id":"node/249600639","source":"OpenStreetMap"}},{"type":"Feature","geometry":{"type":"Point","coordinates":[-80.0032053,-1.802613]},"properties":{"place":"hamlet","osm_id":"node/249600640","source":"OpenStreetMap"}},{"type":"Feature","geometry":{"type":"Point","coordinates":[-79.8014749,-1.7437888]},"properties":{"name":"La Florida","place":"hamlet","osm_id":"node/249600680","source":"OpenStreetMap"}},{"type":"Feature","geometry":{"type":"Point","coordinates":[-79.9993297,-1.741022]},"properties":{"name":"Vista Alegre","place":"hamlet","osm_id":"node/249600681","source":"OpenStreetMap"}},{"type":"Feature","geometry":{"type":"Point","coordinates":[-80.0016415,-1.8475337]},"properties":{"name":"Vista Florida","place":"hamlet","osm_id":"node/249600818","source":"OpenStreetMap"}},{"type":"Feature","geometry":{"type":"Point","coordinates":[-79.9614274,-1.7892553]},"properties":{"name":"Soraya","place":"hamlet","osm_id":"node/249600847","source":"OpenStreetMap"}},{"type":"Feature","geometry":{"type":"Point","coordinates":[-79.824045,-1.9082507]},"properties":{"name":"Mato Palo","place":"hamlet","osm_id":"node/249600852","source":"OpenStreetMap"}},{"type":"Feature","geometry":{"type":"Point","coordinates":[-79.8325335,-1.835349]},"properties":{"name":"Victoria","place":"hamlet","osm_id":"node/249600853","source":"OpenStreetMap"}},{"type":"Feature","geometry":{"type":"Point","coordinates":[-79.9828086,-1.9926634]},"properties":{"name":"La Toma","place":"village","osm_id":"node/249600863","source":"OpenStreetMap"}},{"type":"Feature","geometry":{"type":"Point","coordinates":[-80.0,-2.016667]},"properties":{"name":"Victoria","place":"village","osm_id":"node/249600865","source":"OpenStreetMap"}},{"type":"Feature","geometry":{"type":"Point","coordinates":[-80.0330019,-1.9128638]},"properties":{"name":"Bijagual","place":"hamlet","osm_id":"node/249600866","source":"OpenStreetMap"}},{"type":"Feature","geometry":{"type":"Point","coordinates":[-79.9256929,-2.0933347]},"properties":{"name":"Bastión Popular","place":"suburb","osm_id":"node/919774035","source":"OpenStreetMap"}},{"type":"Feature","geometry":{"type":"Point","coordinates":[-79.9053921,-2.0906869]},"properties":{"name":"Los Vergeles","place":"suburb","osm_id":"node/919774045","source":"OpenStreetMap"}},{"type":"Feature","geometry":{"type":"Point","coordinates":[-79.977405,-1.8583046]},"properties":{"name":"Freffy Mosquera","place":"neighbourhood","osm_id":"node/1402989598","source":"OpenStreetMap"}},{"type":"Feature","geometry":{"type":"Point","coordinates":[-79.8810928,-2.0535846]},"properties":{"name":"La Aurora","place":"town","osm_id":"node/1439513499","source":"OpenStreetMap"}},{"type":"Feature","geometry":{"type":"Point","coordinates":[-79.8322049,-2.0370056]},"properties":{"name":"Redondel Samborondon","place":"hamlet","osm_id":"node/1439522675","source":"OpenStreetMap"}},{"type":"Feature","geometry":{"type":"Point","coordinates":[-79.929694,-2.0794513]},"properties":{"name":"Cueva del Lobo","place":"hamlet","osm_id":"node/1440329965","source":"OpenStreetMap"}},{"type":"Feature","geometry":{"type":"Point","coordinates":[-79.937601,-2.0991992]},"properties":{"name":"Importadora Guzmán","place":"hamlet","osm_id":"node/1440391318","source":"OpenStreetMap"}},{"type":"Feature","geometry":{"type":"Point","coordinates":[-79.9851145,-1.986134]},"properties":{"name":"Puente Lucia","place":"village","osm_id":"node/2887288168","source":"OpenStreetMap"}},{"type":"Feature","geometry":{"type":"Point","coordinates":[-79.9863624,-1.8737677]},"properties":{"name":"Multicentro","place":"neighbourhood","osm_id":"node/3273616581","source":"OpenStreetMap"}},{"type":"Feature","geometry":{"type":"Point","coordinates":[-79.9859029,-1.872942]},"properties":{"name":"Rumiñahui","place":"neighbourhood","osm_id":"node/3273623890","source":"OpenStreetMap"}},{"type":"Feature","geometry":{"type":"Point","coordinates":[-79.9852667,-1.872231]},"properties":{"name":"Volita","place":"neighbourhood","osm_id":"node/3273630135","source":"OpenStreetMap"}},{"type":"Feature","geometry":{"type":"Point","coordinates":[-79.9830886,-1.8723635]},"properties":{"name":"San Francisco","place":"neighbourhood","osm_id":"node/3273630317","source":"OpenStreetMap"}},{"type":"Feature","geometry":{"type":"Point","coordinates":[-79.8638639,-2.0988196]},"properties":{"name":"Urbanización Isla del Río","place":"neighbourhood","osm_id":"node/3484534010","source":"OpenStreetMap"}},{"type":"Feature","geometry":{"type":"Point","coordinates":[-79.8913794,-2.0501332]},"properties":{"name":"Aura - Villa Club","place":"neighbourhood","osm_id":"node/4244859562","source":"OpenStreetMap"}},{"type":"Feature","geometry":{"type":"Point","coordinates":[-79.9157471,-2.0366795]},"properties":{"name":"La Joya","place":"suburb","osm_id":"node/4244859567","source":"OpenStreetMap"}},{"type":"Feature","geometry":{"type":"Point","coordinates":[-79.9323508,-2.0594762]},"properties":{"name":"Urb. Villa Italia","place":"suburb","osm_id":"node/4244890380","source":"OpenStreetMap"}},{"type":"Feature","geometry":{"type":"Point","coordinates":[-79.8908738,-2.0450014]},"properties":{"name":"Boreal","place":"neighbourhood","osm_id":"node/4304685562","source":"OpenStreetMap"}},{"type":"Feature","geometry":{"type":"Point","coordinates":[-79.8919164,-2.0451187]},"properties":{"name":"Aura","place":"neighbourhood","osm_id":"node/4304685563","source":"OpenStreetMap"}},{"type":"Feature","geometry":{"type":"Point","coordinates":[-79.8931567,-2.0402189]},"properties":{"name":"Cosmos - Villa Club","place":"neighbourhood","osm_id":"node/4304696115","source":"OpenStreetMap"}},{"type":"Feature","geometry":{"type":"Point","coordinates":[-79.894375,-2.0408719]},"properties":{"name":"Doral - Villa Club","place":"neighbourhood","osm_id":"node/4304696116","source":"OpenStreetMap"}},{"type":"Feature","geometry":{"type":"Point","coordinates":[-79.8933118,-2.0363143]},"properties":{"name":"Galaxia - Villa Club","place":"neighbourhood","osm_id":"node/4304696138","source":"OpenStreetMap"}},{"type":"Feature","geometry":{"type":"Point","coordinates":[-79.8941286,-2.0360964]},"properties":{"name":"Floral - Villa Club","place":"neighbourhood","osm_id":"node/4304702359","source":"OpenStreetMap"}},{"type":"Feature","geometry":{"type":"Point","coordinates":[-79.8981902,-2.0366136]},"properties":{"name":"Júpiter - Villa Club","place":"neighbourhood","osm_id":"node/4304703063","source":"OpenStreetMap"}},{"type":"Feature","geometry":{"type":"Point","coordinates":[-79.8981727,-2.0378162]},"properties":{"name":"Kryptón - Villa Club","place":"neighbourhood","osm_id":"node/4304708075","source":"OpenStreetMap"}},{"type":"Feature","geometry":{"type":"Point","coordinates":[-79.8945001,-2.0382734]},"properties":{"name":"Estelar - Villa Club","place":"neighbourhood","osm_id":"node/4304717883","source":"OpenStreetMap"}},{"type":"Feature","geometry":{"type":"Point","coordinates":[-79.8933116,-2.0332953]},"properties":{"name":"Hermes","place":"neighbourhood","osm_id":"node/4304725804","source":"OpenStreetMap"}},{"type":"Feature","geometry":{"type":"Point","coordinates":[-79.8928492,-2.0320977]},"properties":{"name":"Omega","place":"neighbourhood","osm_id":"node/4304725806","source":"OpenStreetMap"}},{"type":"Feature","geometry":{"type":"Point","coordinates":[-79.9004046,-2.03301]},"properties":{"name":"Luna - Villa Club","place":"neighbourhood","osm_id":"node/4304725807","source":"OpenStreetMap"}},{"type":"Feature","geometry":{"type":"Point","coordinates":[-79.904314,-2.0293761]},"properties":{"name":"Magna - Villa Club","place":"neighbourhood","osm_id":"node/4304735501","source":"OpenStreetMap"}},{"type":"Feature","geometry":{"type":"Point","coordinates":[-79.8977897,-2.0345327]},"properties":{"name":"Iris","place":"neighbourhood","osm_id":"node/4304811798","source":"OpenStreetMap"}},{"type":"Feature","geometry":{"type":"Point","coordinates":[-80.0176764,-1.7899652]},"properties":{"name":"Piñal de Arriba","place":"hamlet","osm_id":"node/4886390368","source":"OpenStreetMap"}},{"type":"Feature","geometry":{"type":"Point","coordinates":[-80.017843,-1.7417131]},"properties":{"name":"Bermejo de Arriba","place":"hamlet","osm_id":"node/4886390373","source":"OpenStreetMap"}},{"type":"Feature","geometry":{"type":"Point","coordinates":[-80.0194037,-1.7399175]},"properties":{"name":"Bermejo del Frente","place":"hamlet","osm_id":"node/4886390374","source":"OpenStreetMap"}},{"type":"Feature","geometry":{"type":"Point","coordinates":[-79.7814405,-1.7429085]},"properties":{"name":"Las Ramas","place":"hamlet","osm_id":"node/5034491039","source":"OpenStreetMap"}},{"type":"Feature","geometry":{"type":"Point","coordinates":[-79.9191803,-1.8115035]},"properties":{"name":"Yurima","place":"hamlet","osm_id":"node/5257052455","source":"OpenStreetMap"}},{"type":"Feature","geometry":{"type":"Point","coordinates":[-79.8253727,-1.859796]},"properties":{"name":"Briceño de Adentro","place":"hamlet","osm_id":"node/5261420226","source":"OpenStreetMap"}},{"type":"Feature","geometry":{"type":"Point","coordinates":[-79.8001385,-1.8375989]},"properties":{"name":"Playones de Afuera","place":"hamlet","osm_id":"node/5263059361","source":"OpenStreetMap"}},{"type":"Feature","geometry":{"type":"Point","coordinates":[-79.8309946,-1.8052785]},"properties":{"name":"Candilejo de Arriba","place":"hamlet","osm_id":"node/5263059362","source":"OpenStreetMap"}},{"type":"Feature","geometry":{"type":"Point","coordinates":[-79.8547054,-1.7424912]},"properties":{"name":"La Aguedita","place":"hamlet","osm_id":"node/5263059367","source":"OpenStreetMap"}},{"type":"Feature","geometry":{"type":"Point","coordinates":[-79.8348463,-1.7538907]},"properties":{"name":"El Triunfo","place":"hamlet","osm_id":"node/5263059388","source":"OpenStreetMap"}},{"type":"Feature","geometry":{"type":"Point","coordinates":[-79.8753691,-1.7756384]},"properties":{"name":"El Jobito","place":"hamlet","osm_id":"node/5263059390","source":"OpenStreetMap"}},{"type":"Feature","geometry":{"type":"Point","coordinates":[-79.896977,-1.7665984]},"properties":{"name":"Las Peñas","place":"hamlet","osm_id":"node/5263059391","source":"OpenStreetMap"}},{"type":"Feature","geometry":{"type":"Point","coordinates":[-79.893651,-1.7572473]},"properties":{"name":"El Recreo","place":"hamlet","osm_id":"node/5263059392","source":"OpenStreetMap"}},{"type":"Feature","geometry":{"type":"Point","coordinates":[-79.86449,-1.7496012]},"properties":{"name":"La Armenia 1","place":"hamlet","osm_id":"node/5263059393","source":"OpenStreetMap"}},{"type":"Feature","geometry":{"type":"Point","coordinates":[-80.0250578,-1.7991017]},"properties":{"name":"Piñal de Abajo","place":"hamlet","osm_id":"node/5337314210","source":"OpenStreetMap"}},{"type":"Feature","geometry":{"type":"Point","coordinates":[-79.9889821,-1.7961581]},"properties":{"name":"Los Jazmines de Abajo","place":"hamlet","osm_id":"node/5337763170","source":"OpenStreetMap"}},{"type":"Feature","geometry":{"type":"Point","coordinates":[-79.8565293,-1.8927373]},"properties":{"name":"La Esperanza","place":"hamlet","osm_id":"node/5339234256","source":"OpenStreetMap"}},{"type":"Feature","geometry":{"type":"Point","coordinates":[-79.8861301,-1.8942707]},"properties":{"name":"San Pedro","place":"hamlet","osm_id":"node/5339234257","source":"OpenStreetMap"}},{"type":"Feature","geometry":{"type":"Point","coordinates":[-79.9237669,-1.8471211]},"properties":{"name":"Palo Alto","place":"hamlet","osm_id":"node/5339234273","source":"OpenStreetMap"}},{"type":"Feature","geometry":{"type":"Point","coordinates":[-79.9117452,-1.8287521]},"properties":{"name":"Las Playas","place":"hamlet","osm_id":"node/5339234274","source":"OpenStreetMap"}},{"type":"Feature","geometry":{"type":"Point","coordinates":[-79.9112893,-1.8370627]},"properties":{"name":"San Luis","place":"hamlet","osm_id":"node/5339234275","source":"OpenStreetMap"}},{"type":"Feature","geometry":{"type":"Point","coordinates":[-79.8910332,-1.8368053]},"properties":{"name":"Recinto Los Quemados del Centro","place":"hamlet","osm_id":"node/5339234276","source":"OpenStreetMap"}},{"type":"Feature","geometry":{"type":"Point","coordinates":[-79.9194217,-1.7855686]},"properties":{"name":"Desvío a Yurima","place":"hamlet","osm_id":"node/5339234584","source":"OpenStreetMap"}},{"type":"Feature","geometry":{"type":"Point","coordinates":[-79.8957539,-1.8155301]},"properties":{"name":"La Alianza","place":"hamlet","osm_id":"node/5339234585","source":"OpenStreetMap"}},{"type":"Feature","geometry":{"type":"Point","coordinates":[-79.8995412,-1.8180073]},"properties":{"name":"La Javilla","place":"hamlet","osm_id":"node/5339234586","source":"OpenStreetMap"}},{"type":"Feature","geometry":{"type":"Point","coordinates":[-79.9003136,-1.8060828]},"properties":{"name":"Voluntad de Dios","place":"hamlet","osm_id":"node/5339234587","source":"OpenStreetMap"}},{"type":"Feature","geometry":{"type":"Point","coordinates":[-79.9057102,-1.8168813]},"properties":{"name":"Marianita","place":"hamlet","osm_id":"node/5339234588","source":"OpenStreetMap"}},{"type":"Feature","geometry":{"type":"Point","coordinates":[-79.9396348,-1.7950482]},"properties":{"name":"La Alborrada","place":"hamlet","osm_id":"node/5339234591","source":"OpenStreetMap"}},{"type":"Feature","geometry":{"type":"Point","coordinates":[-79.9287639,-1.8046669]},"properties":{"name":"Maria Victoria","place":"hamlet","osm_id":"node/5339234592","source":"OpenStreetMap"}},{"type":"Feature","geometry":{"type":"Point","coordinates":[-79.9285412,-1.7999167]},"properties":{"name":"Los Tamarindos","place":"hamlet","osm_id":"node/5339234593","source":"OpenStreetMap"}},{"type":"Feature","geometry":{"type":"Point","coordinates":[-79.9233914,-1.7962922]},"properties":{"name":"Las Aguas","place":"hamlet","osm_id":"node/5339234594","source":"OpenStreetMap"}},{"type":"Feature","geometry":{"type":"Point","coordinates":[-79.9290347,-1.7835096]},"properties":{"name":"La Tristeza","place":"hamlet","osm_id":"node/5339234596","source":"OpenStreetMap"}},{"type":"Feature","geometry":{"type":"Point","coordinates":[-79.9328756,-1.7848179]},"properties":{"name":"Sabana Grande","place":"hamlet","osm_id":"node/5339234597","source":"OpenStreetMap"}},{"type":"Feature","geometry":{"type":"Point","coordinates":[-79.9320495,-1.8117447]},"properties":{"name":"La Union","place":"hamlet","osm_id":"node/5339234608","source":"OpenStreetMap"}},{"type":"Feature","geometry":{"type":"Point","coordinates":[-80.0282389,-1.8158143]},"properties":{"name":"Loma de Papayo","place":"hamlet","osm_id":"node/5339235438","source":"OpenStreetMap"}},{"type":"Feature","geometry":{"type":"Point","coordinates":[-80.009443,-1.7973302]},"properties":{"name":"El Recreo","place":"hamlet","osm_id":"node/5339235440","source":"OpenStreetMap"}},{"type":"Feature","geometry":{"type":"Point","coordinates":[-79.9359174,-1.9688859]},"properties":{"name":"La Mina","place":"hamlet","osm_id":"node/5343208666","source":"OpenStreetMap"}},{"type":"Feature","geometry":{"type":"Point","coordinates":[-79.9804093,-1.8641689]},"properties":{"name":"Daule","place":"city","osm_id":"node/5397219762","source":"OpenStreetMap"}},{"type":"Feature","geometry":{"type":"Point","coordinates":[-79.8067497,-1.9538248]},"properties":{"name":"Vista Alegre","place":"village","osm_id":"node/5724266090","source":"OpenStreetMap"}},{"type":"Feature","geometry":{"type":"Point","coordinates":[-79.8926286,-2.0622511]},"properties":{"name":"Villa España 2","place":"village","osm_id":"node/5749633077","source":"OpenStreetMap"}},{"type":"Feature","geometry":{"type":"Point","coordinates":[-79.7917055,-2.0178848]},"properties":{"name":"Rcto. Los López","place":"hamlet","osm_id":"node/5776223815","source":"OpenStreetMap"}},{"type":"Feature","geometry":{"type":"Point","coordinates":[-79.8036134,-2.0258846]},"properties":{"name":"San Lorenzo","place":"hamlet","osm_id":"node/5776223816","source":"OpenStreetMap"}},{"type":"Feature","geometry":{"type":"Point","coordinates":[-79.8144417,-2.0298774]},"properties":{"name":"Las 70 cuadras","place":"hamlet","osm_id":"node/5776223817","source":"OpenStreetMap"}},{"type":"Feature","geometry":{"type":"Point","coordinates":[-79.8132255,-1.9854009]},"properties":{"name":"Río Seco","place":"hamlet","osm_id":"node/5800286489","source":"OpenStreetMap"}},{"type":"Feature","geometry":{"type":"Point","coordinates":[-80.0664124,-1.7525229]},"properties":{"name":"El Pescado","place":"hamlet","osm_id":"node/6003871790","source":"OpenStreetMap"}},{"type":"Feature","geometry":{"type":"Point","coordinates":[-79.813129,-2.0047672]},"properties":{"name":"Los Tamarindos","place":"hamlet","osm_id":"node/6138552075","source":"OpenStreetMap"}},{"type":"Feature","geometry":{"type":"Point","coordinates":[-79.796244,-1.9851716]},"properties":{"name":"Amelia María","place":"village","osm_id":"node/6138552076","source":"OpenStreetMap"}},{"type":"Feature","geometry":{"type":"Point","coordinates":[-79.789051,-1.9868999]},"properties":{"name":"El Paraíso","place":"village","osm_id":"node/6138552078","source":"OpenStreetMap"}},{"type":"Feature","geometry":{"type":"Point","coordinates":[-80.0208729,-1.7407425]},"properties":{"name":"San Andres","place":"hamlet","osm_id":"node/6139276485","source":"OpenStreetMap"}},{"type":"Feature","geometry":{"type":"Point","coordinates":[-79.8152568,-2.0241446]},"properties":{"name":"Paraíso","place":"hamlet","osm_id":"node/6189206293","source":"OpenStreetMap"}},{"type":"Feature","geometry":{"type":"Point","coordinates":[-79.9463475,-2.024593]},"properties":{"name":"Ciudad Santiago Centenario","place":"neighbourhood","osm_id":"node/6275720448","source":"OpenStreetMap"}},{"type":"Feature","geometry":{"type":"Point","coordinates":[-80.0227681,-1.7404191]},"properties":{"name":"Rcto. Las cabañas","place":"hamlet","osm_id":"node/6381286586","source":"OpenStreetMap"}},{"type":"Feature","geometry":{"type":"Point","coordinates":[-79.916766,-2.0247886]},"properties":{"name":"Urb. Villas del Rey","place":"suburb","osm_id":"node/6800527815","source":"OpenStreetMap"}},{"type":"Feature","geometry":{"type":"Point","coordinates":[-79.9182685,-2.0186617]},"properties":{"name":"Etapa Príncipe Felipe","place":"neighbourhood","osm_id":"node/6800586028","source":"OpenStreetMap"}},{"type":"Feature","geometry":{"type":"Point","coordinates":[-79.8623844,-2.07431]},"properties":{"name":"Urbanización El Cortijo","place":"neighbourhood","osm_id":"node/6806638604","source":"OpenStreetMap"}},{"type":"Feature","geometry":{"type":"Point","coordinates":[-79.9153166,-2.0638595]},"properties":{"name":"Cdla. Metrópolis II","place":"suburb","osm_id":"node/12494117832","source":"OpenStreetMap"}},{"type":"Feature","geometry":{"type":"Point","coordinates":[-79.9977435,-2.0550831]},"properties":{"name":"13ava. etapa","place":"suburb","osm_id":"node/12494471935","source":"OpenStreetMap"}},{"type":"Feature","geometry":{"type":"Point","coordinates":[-79.9868576,-2.0564083]},"properties":{"name":"Cdla. Villa Bonita","place":"suburb","osm_id":"node/12519466844","source":"OpenStreetMap"}},{"type":"Feature","geometry":{"type":"Point","coordinates":[-79.9993216,-1.8168484]},"properties":{"place":"hamlet","osm_id":"node/12529711118","source":"OpenStreetMap"}},{"type":"Feature","geometry":{"type":"Point","coordinates":[-80.0004174,-1.8026946]},"properties":{"name":"Valdivia","place":"hamlet","osm_id":"node/12530063373","source":"OpenStreetMap"}},{"type":"Feature","geometry":{"type":"Point","coordinates":[-79.9092996,-2.0685391]},"properties":{"name":"Cdla. Metrópolis I","place":"suburb","osm_id":"node/12773373162","source":"OpenStreetMap"}},{"type":"Feature","geometry":{"type":"Point","coordinates":[-79.9649029,-2.0063371]},"properties":{"name":"Urbano El Lago de Capeira","place":"suburb","osm_id":"node/12798887391","source":"OpenStreetMap"}},{"type":"Feature","geometry":{"type":"Point","coordinates":[-79.9747983,-1.9865255]},"properties":{"name":"Urbano Lagos del Daule","place":"suburb","osm_id":"node/12798940125","source":"OpenStreetMap"}},{"type":"Feature","geometry":{"type":"Point","coordinates":[-79.9768789,-1.9890453]},"properties":{"name":"Cooperativa Los Angeles","place":"suburb","osm_id":"node/12798940126","source":"OpenStreetMap"}},{"type":"Feature","geometry":{"type":"Point","coordinates":[-79.9785078,-1.9865584]},"properties":{"name":"Cooperativa Paraiso del Río","place":"suburb","osm_id":"node/12798940130","source":"OpenStreetMap"}},{"type":"Feature","geometry":{"type":"Point","coordinates":[-79.977529,-1.9884141]},"properties":{"name":"Cooperativa Nueva Victoria - Etapa 1","place":"suburb","osm_id":"node/12798940131","source":"OpenStreetMap"}},{"type":"Feature","geometry":{"type":"Point","coordinates":[-79.9769687,-1.98574]},"properties":{"name":"Cooperativa 11 de Septiembre","place":"suburb","osm_id":"node/12798940132","source":"OpenStreetMap"}},{"type":"Feature","geometry":{"type":"Point","coordinates":[-80.0059085,-1.8831482]},"properties":{"name":"Magro","place":"suburb","osm_id":"node/12798966277","source":"OpenStreetMap"}},{"type":"Feature","geometry":{"type":"Point","coordinates":[-79.915531,-2.0909872]},"properties":{"name":"LAS ORQUIDEAS ESTE","place":"neighbourhood","osm_id":"node/12994570363","source":"OpenStreetMap"}},{"type":"Feature","geometry":{"type":"Point","coordinates":[-79.9170548,-2.0849612]},"properties":{"name":"LAS ORQUIDEAS","place":"neighbourhood","osm_id":"node/12994570364","source":"OpenStreetMap"}},{"type":"Feature","geometry":{"type":"Point","coordinates":[-79.9344315,-2.0818473]},"properties":{"name":"BLOQUE 11","place":"neighbourhood","osm_id":"node/12994570365","source":"OpenStreetMap"}},{"type":"Feature","geometry":{"type":"Point","coordinates":[-79.934925,-2.0853314]},"properties":{"name":"BLOQUE 6","place":"neighbourhood","osm_id":"node/12994570366","source":"OpenStreetMap"}},{"type":"Feature","geometry":{"type":"Point","coordinates":[-79.930226,-2.0865219]},"properties":{"name":"BLOQUE 9","place":"neighbourhood","osm_id":"node/12994570367","source":"OpenStreetMap"}},{"type":"Feature","geometry":{"type":"Point","coordinates":[-79.9133483,-2.0800151]},"properties":{"name":"Cdla. Los Geranios II","place":"neighbourhood","osm_id":"node/12994570368","source":"OpenStreetMap"}},{"type":"Feature","geometry":{"type":"Point","coordinates":[-79.9233016,-2.0683757]},"properties":{"name":"Cooperativa San Nicolás","place":"neighbourhood","osm_id":"node/12994570369","source":"OpenStreetMap"}},{"type":"Feature","geometry":{"type":"Point","coordinates":[-79.9242279,-2.0724238]},"properties":{"name":"VILCABAMBA","place":"neighbourhood","osm_id":"node/12994570370","source":"OpenStreetMap"}},{"type":"Feature","geometry":{"type":"Point","coordinates":[-79.9297853,-2.0730348]},"properties":{"name":"PAQUISHA","place":"neighbourhood","osm_id":"node/12994570371","source":"OpenStreetMap"}},{"type":"Feature","geometry":{"type":"Point","coordinates":[-79.9356,-2.0704506]},"properties":{"name":"PIE DE LUCHA","place":"neighbourhood","osm_id":"node/12994570372","source":"OpenStreetMap"}},{"type":"Feature","geometry":{"type":"Point","coordinates":[-79.9352245,-2.0670196]},"properties":{"name":"BARRIO LAS VEGAS","place":"neighbourhood","osm_id":"node/12994570373","source":"OpenStreetMap"}},{"type":"Feature","geometry":{"type":"Point","coordinates":[-79.94253,-2.0866156]},"properties":{"name":"Montebello","place":"neighbourhood","osm_id":"node/12994570374","source":"OpenStreetMap"}},{"type":"Feature","geometry":{"type":"Point","coordinates":[-79.9204643,-2.0922478]},"properties":{"name":"Mucho Lote I","place":"suburb","osm_id":"node/12994576817","source":"OpenStreetMap"}},{"type":"Feature","geometry":{"type":"Point","coordinates":[-80.05535,-1.757267]},"properties":{"name":"La Saiba de Arriba","place":"hamlet","osm_id":"node/13095396658","source":"OpenStreetMap"}},{"type":"Feature","geometry":{"type":"Point","coordinates":[-80.059226,-1.7477055]},"properties":{"name":"La Paz","place":"hamlet","osm_id":"node/13095396659","source":"OpenStreetMap"}},{"type":"Feature","geometry":{"type":"Point","coordinates":[-80.0797926,-1.7487652]},"properties":{"name":"Sartanejal Oeste","place":"hamlet","osm_id":"node/13095396660","source":"OpenStreetMap"}},{"type":"Feature","geometry":{"type":"Point","coordinates":[-80.0676222,-1.8013721]},"properties":{"name":"Mamey","place":"hamlet","osm_id":"node/13125592608","source":"OpenStreetMap"}},{"type":"Feature","geometry":{"type":"Point","coordinates":[-79.9385033,-2.0893431]},"properties":{"name":"Urbano Caracol","place":"suburb","osm_id":"node/13154511194","source":"OpenStreetMap"}},{"type":"Feature","geometry":{"type":"Point","coordinates":[-79.961999,-2.096018]},"properties":{"name":"Cooperativa Flor de Bastión Bloque 6","place":"suburb","osm_id":"node/13154519570","source":"OpenStreetMap"}},{"type":"Feature","geometry":{"type":"Point","coordinates":[-79.9359982,-2.0383743]},"properties":{"name":"Cooperativa La Germania","place":"suburb","osm_id":"node/13157283249","source":"OpenStreetMap"}},{"type":"Feature","geometry":{"type":"Point","coordinates":[-79.952148,-2.0959214]},"properties":{"name":"Urbanización Cumbres del Sol","place":"hamlet","osm_id":"node/13162145125","source":"OpenStreetMap"}},{"type":"Feature","geometry":{"type":"Point","coordinates":[-79.9496436,-2.0961598]},"properties":{"name":"Urbanización Cumbres del Sol II","place":"hamlet","osm_id":"node/13162145126","source":"OpenStreetMap"}},{"type":"Feature","geometry":{"type":"Point","coordinates":[-80.0689325,-1.7563422]},"properties":{"name":"Duran Chiquito","place":"hamlet","osm_id":"node/13208674532","source":"OpenStreetMap"}},{"type":"Feature","geometry":{"type":"Point","coordinates":[-80.0139944,-1.7397375]},"properties":{"name":"La Fortuna","place":"hamlet","osm_id":"node/13208685947","source":"OpenStreetMap"}},{"type":"Feature","geometry":{"type":"Point","coordinates":[-79.8980639,-2.0296428]},"properties":{"name":"Urb. Vistana 1000","place":"suburb","osm_id":"node/13293698827","source":"OpenStreetMap"}},{"type":"Feature","geometry":{"type":"Point","coordinates":[-79.8974809,-2.0273379]},"properties":{"name":"Urb. Vistana 2000","place":"suburb","osm_id":"node/13293698828","source":"OpenStreetMap"}},{"type":"Feature","geometry":{"type":"Point","coordinates":[-79.876794,-2.0344291]},"properties":{"name":"Urbano Piamonte","place":"suburb","osm_id":"node/13293698829","source":"OpenStreetMap"}},{"type":"Feature","geometry":{"type":"Point","coordinates":[-79.9233132,-2.0146901]},"properties":{"name":"Principe Guillermo | Villa del rey","place":"neighbourhood","osm_id":"node/13351809072","source":"OpenStreetMap"}},{"type":"Feature","geometry":{"type":"Point","coordinates":[-79.9259447,-2.015283]},"properties":{"name":"Reina Isabel | Villa del rey","place":"neighbourhood","osm_id":"node/13351809073","source":"OpenStreetMap"}},{"type":"Feature","geometry":{"type":"Point","coordinates":[-79.9288998,-2.0165829]},"properties":{"name":"Rey Juan Carlos  | Villa del rey","place":"neighbourhood","osm_id":"node/13351809074","source":"OpenStreetMap"}},{"type":"Feature","geometry":{"type":"Point","coordinates":[-79.9800238,-1.8725281]},"properties":{"name":"Santiago López","place":"neighbourhood","osm_id":"node/13704565592","source":"OpenStreetMap"}},{"type":"Feature","geometry":{"type":"Point","coordinates":[-80.0535212,-2.0404888]},"properties":{"name":"Pendiente Definir Carretera","place":"suburb","osm_id":"node/13833287146","source":"OpenStreetMap"}},{"type":"Feature","geometry":{"type":"Point","coordinates":[-80.0081059,-2.038577]},"properties":{"name":"Terminal de Almacenamiento y Distribución de GLP El Chorrillo","place":"suburb","osm_id":"node/13833287611","source":"OpenStreetMap"}},{"type":"Feature","geometry":{"type":"Point","coordinates":[-79.9775723,-2.0686591]},"properties":{"name":"Urbano Terrenova","place":"suburb","osm_id":"node/13835993277","source":"OpenStreetMap"}},{"type":"Feature","geometry":{"type":"Point","coordinates":[-79.9706673,-2.0639561]},"properties":{"name":"Urbano Bonavila","place":"suburb","osm_id":"node/13835993818","source":"OpenStreetMap"}},{"type":"Feature","geometry":{"type":"Point","coordinates":[-79.9503832,-2.0532023]},"properties":{"name":"CELEC EP Electroguayas","place":"suburb","osm_id":"node/13836133087","source":"OpenStreetMap"}},{"type":"Feature","geometry":{"type":"Point","coordinates":[-79.8645786,-2.008783]},"properties":{"name":"Recinto Tierra Blanca","place":"neighbourhood","osm_id":"node/13900330951","source":"OpenStreetMap"}},{"type":"Feature","geometry":{"type":"Point","coordinates":[-79.9339258,-2.0514753]},"properties":{"name":"Urb. La Rioja","place":"suburb","osm_id":"node/13915168711","source":"OpenStreetMap"}},{"type":"Feature","geometry":{"type":"Point","coordinates":[-79.9401849,-2.0738482]},"properties":{"name":"Terminal Terrestre Municipal Pascuales","place":"neighbourhood","osm_id":"node/14227494585","source":"OpenStreetMap"}}]}