{"type":"FeatureCollection","features":[{"type":"Feature","geometry":{"type":"MultiPolygon","coordinates":[[[[-79.7945355,-1.9763501],[-79.7941643,-1.979725],[-79.7939733,-1.9804552],[-79.7935447,-1.9810626],[-79.7927974,-1.9813837],[-79.7918109,-1.9814073],[-79.7908947,-1.9809117],[-79.7880191,-1.9791281],[-79.7871881,-1.9788277],[-79.7847776,-1.9788514],[-79.7834081,-1.9783809],[-79.7810831,-1.977803],[-79.7768991,-1.9777457],[-79.774551,-1.97743],[-79.7705354,-1.9773024],[-79.7651762,-1.9775767],[-79.7618528,-1.9773746],[-79.7611389,-1.977437],[-79.7605916,-1.9776458],[-79.7601722,-1.9778852],[-79.7596947,-1.9782906],[-79.7568279,-1.9813944],[-79.7555104,-1.9836864],[-79.7546645,-1.9845184],[-79.7533717,-1.98518],[-79.7521491,-1.985507],[-79.7508858,-1.9852604],[-79.7498655,-1.9845608],[-79.7482808,-1.9828682],[-79.7477379,-1.9830076],[-79.7471768,-1.9806412],[-79.7483715,-1.9807902],[-79.7502174,-1.9823064],[-79.7507173,-1.9842198],[-79.7515563,-1.9846916],[-79.7529345,-1.9846605],[-79.7540921,-1.9840397],[-79.7549768,-1.9829906],[-79.7563664,-1.9808528],[-79.7581787,-1.9790119],[-79.7592092,-1.9777901],[-79.7601,-1.9771091],[-79.76017,-1.9770556],[-79.7611786,-1.9768167],[-79.7622279,-1.9767728],[-79.7628466,-1.9766687],[-79.7663079,-1.9767634],[-79.7701756,-1.9766712],[-79.77468,-1.9767099],[-79.7747486,-1.9767237],[-79.777217,-1.9772202],[-79.7804421,-1.9772636],[-79.783686,-1.9778646],[-79.7850915,-1.9783075],[-79.7874813,-1.9785015],[-79.7885156,-1.9788956],[-79.7903545,-1.9801002],[-79.7921247,-1.9809575],[-79.7928425,-1.9808814],[-79.7935501,-1.9801801],[-79.7941799,-1.9763211],[-79.7945355,-1.9763501]]]]},"properties":{"natural":"water","water":"river","osm_id":"way/11868228","source":"OpenStreetMap"}},{"type":"Feature","geometry":{"type":"MultiPolygon","coordinates":[[[[-79.9665239,-1.9573622],[-79.9660197,-1.9576249],[-79.9658024,-1.9571223],[-79.9654967,-1.9567738],[-79.9651963,-1.9562457],[-79.9647188,-1.9554442],[-79.9644077,-1.9551627],[-79.9641636,-1.9550528],[-79.9639437,-1.9547579],[-79.9634394,-1.9537286],[-79.9634019,-1.9533318],[-79.9634153,-1.9529833],[-79.9632677,-1.9528198],[-79.9628171,-1.9524981],[-79.9625784,-1.9519593],[-79.9625099,-1.95171],[-79.9626087,-1.9512865],[-79.9628425,-1.9509587],[-79.9630585,-1.950737],[-79.9635065,-1.9505332],[-79.9640107,-1.9503429],[-79.9643648,-1.9502357],[-79.9645981,-1.95004],[-79.9645874,-1.9497639],[-79.9643245,-1.9493376],[-79.9641126,-1.9490213],[-79.963882,-1.9487023],[-79.9636781,-1.9482681],[-79.9634904,-1.9478981],[-79.9631873,-1.9475523],[-79.9628976,-1.947177],[-79.9628037,-1.9469224],[-79.9626991,-1.9466275],[-79.9626106,-1.9463594],[-79.9624524,-1.945952],[-79.9625328,-1.9458635],[-79.9625838,-1.9457214],[-79.9625301,-1.9455981],[-79.9624014,-1.9455418],[-79.96227,-1.9454641],[-79.9619025,-1.9452175],[-79.9616557,-1.9452175],[-79.9614546,-1.9452979],[-79.9612883,-1.9456276],[-79.9609208,-1.9458126],[-79.9606016,-1.9458582],[-79.9605373,-1.9459359],[-79.960202,-1.9458903],[-79.9599633,-1.9455472],[-79.9597058,-1.9449709],[-79.9595797,-1.9445098],[-79.9594456,-1.9440407],[-79.9594134,-1.9439039],[-79.9595609,-1.9433732],[-79.9596226,-1.9429496],[-79.9594939,-1.9428907],[-79.9593115,-1.9429014],[-79.9591103,-1.9429738],[-79.9589092,-1.9430703],[-79.9582842,-1.9432177],[-79.9581555,-1.9430971],[-79.957839,-1.9431534],[-79.95745,-1.9435233],[-79.9570665,-1.9438074],[-79.9566293,-1.943845],[-79.9561304,-1.9436037],[-79.95594,-1.9432901],[-79.9557441,-1.9430301],[-79.9555323,-1.9428799],[-79.9552962,-1.9427942],[-79.9547115,-1.9427137],[-79.954572,-1.9427191],[-79.9542314,-1.9428344],[-79.9539015,-1.943014],[-79.9535555,-1.9431239],[-79.9532148,-1.9430863],[-79.952834,-1.9430917],[-79.9521956,-1.9429121],[-79.9518791,-1.9427271],[-79.9515814,-1.9425529],[-79.9514714,-1.9424242],[-79.9512836,-1.9419578],[-79.9512219,-1.9414645],[-79.9516886,-1.9418934],[-79.9520347,-1.9423063],[-79.9524584,-1.9426172],[-79.9536493,-1.9425341],[-79.9544111,-1.9423331],[-79.9551567,-1.9423679],[-79.9556878,-1.9424752],[-79.9558809,-1.9426467],[-79.9561331,-1.9429684],[-79.9563959,-1.9432606],[-79.9566695,-1.9434322],[-79.9567956,-1.9434241],[-79.9571577,-1.9430703],[-79.9574795,-1.9428612],[-79.9580991,-1.9427164],[-79.9584022,-1.9426574],[-79.9586785,-1.9426226],[-79.9589923,-1.9424215],[-79.9592283,-1.9423974],[-79.9597916,-1.9426548],[-79.9599069,-1.942837],[-79.9599874,-1.9432418],[-79.9600169,-1.9436144],[-79.9600276,-1.9440567],[-79.9599552,-1.9444213],[-79.960025,-1.9446545],[-79.9601027,-1.9448663],[-79.9603978,-1.9453327],[-79.960615,-1.9453649],[-79.9610657,-1.9452362],[-79.9612936,-1.9450405],[-79.9616182,-1.9448583],[-79.9618167,-1.9448315],[-79.9620527,-1.9448449],[-79.9622646,-1.9449119],[-79.9625489,-1.9450808],[-79.9628815,-1.9452872],[-79.9629432,-1.9454668],[-79.963021,-1.9460109],[-79.9630183,-1.9462603],[-79.9632973,-1.9469706],[-79.9634957,-1.9472441],[-79.9638203,-1.9477051],[-79.9644023,-1.9486085],[-79.9649844,-1.949158],[-79.9650916,-1.9493162],[-79.9651453,-1.9494851],[-79.965156,-1.949847],[-79.965148,-1.9500882],[-79.9650568,-1.9505252],[-79.9647403,-1.9509112],[-79.9643701,-1.9509728],[-79.9640295,-1.9509675],[-79.9638122,-1.9510613],[-79.9635869,-1.9513079],[-79.9632727,-1.9513765],[-79.963198,-1.9517904],[-79.9633724,-1.9520129],[-79.9637264,-1.9523507],[-79.963882,-1.9527099],[-79.9639249,-1.9530369],[-79.9639303,-1.9534122],[-79.9638981,-1.9537125],[-79.9641073,-1.9540127],[-79.964397,-1.9544523],[-79.9647564,-1.9547365],[-79.9650621,-1.9549617],[-79.9653089,-1.9551815],[-79.9654752,-1.9555139],[-79.9656147,-1.9557927],[-79.9657515,-1.9562913],[-79.9658909,-1.9565003],[-79.966068,-1.9567791],[-79.9661511,-1.9569507],[-79.9662906,-1.9571062],[-79.9664274,-1.9572482],[-79.9665239,-1.9573622]]]]},"properties":{"natural":"water","water":"river","osm_id":"way/11868258","source":"OpenStreetMap"}},{"type":"Feature","geometry":{"type":"MultiPolygon","coordinates":[[[[-79.984916,-1.9659468],[-79.9841316,-1.9667475],[-79.9838752,-1.9666171],[-79.9836364,-1.9665474],[-79.983446,-1.9665474],[-79.9832395,-1.9665608],[-79.9830759,-1.9665929],[-79.9829345,-1.9664709],[-79.982526,-1.9664214],[-79.9817823,-1.9664709],[-79.981598,-1.9664991],[-79.9811837,-1.967271],[-79.9807075,-1.9675553],[-79.9803158,-1.9676673],[-79.9801415,-1.9677161],[-79.9792908,-1.9676747],[-79.9786502,-1.9675285],[-79.9785188,-1.967507],[-79.976687,-1.9667176],[-79.9761102,-1.9666144],[-79.9758393,-1.9665501],[-79.9755791,-1.9664321],[-79.9753779,-1.9663115],[-79.9751231,-1.9663034],[-79.9739711,-1.9660895],[-79.9735889,-1.9661078],[-79.9731973,-1.966164],[-79.9726393,-1.9661045],[-79.9725321,-1.9658772],[-79.9723101,-1.9653417],[-79.971719,-1.9646837],[-79.971545,-1.9640866],[-79.9715906,-1.9636925],[-79.971545,-1.9633172],[-79.9714914,-1.9629124],[-79.9713673,-1.9624629],[-79.9712902,-1.9622316],[-79.9710998,-1.9620386],[-79.9708933,-1.9618858],[-79.9701208,-1.9615266],[-79.9698418,-1.9613604],[-79.9694073,-1.9609743],[-79.9688306,-1.9602559],[-79.9686939,-1.9601085],[-79.9685061,-1.9599584],[-79.9682567,-1.959626],[-79.968152,-1.959382],[-79.9679536,-1.9590389],[-79.9677846,-1.9585537],[-79.9676263,-1.9583473],[-79.9674895,-1.9582696],[-79.9673018,-1.958224],[-79.9670497,-1.9582428],[-79.9664118,-1.9581251],[-79.9660899,-1.95816],[-79.9660063,-1.9577174],[-79.9660197,-1.9576249],[-79.9665239,-1.9573622],[-79.9667278,-1.9574627],[-79.9672481,-1.9576637],[-79.9677417,-1.9578246],[-79.9680957,-1.9580953],[-79.968549,-1.958551],[-79.9690533,-1.9596045],[-79.9693805,-1.9599798],[-79.9697962,-1.9604945],[-79.9708128,-1.9610816],[-79.9709711,-1.9612236],[-79.9712822,-1.9614756],[-79.9717489,-1.9616403],[-79.9719313,-1.9620734],[-79.9723101,-1.9626274],[-79.9723624,-1.9641154],[-79.9728114,-1.9648781],[-79.9734773,-1.965424],[-79.9743158,-1.9655234],[-79.9749512,-1.965424],[-79.9762007,-1.9658053],[-79.9762309,-1.9656976],[-79.9762148,-1.9655395],[-79.9762711,-1.9654162],[-79.9764025,-1.9654644],[-79.9765449,-1.9657081],[-79.9778616,-1.9661962],[-79.9785429,-1.9664562],[-79.9788058,-1.9665125],[-79.9801662,-1.9668148],[-79.9804688,-1.9664938],[-79.9810106,-1.9661855],[-79.9814236,-1.9659121],[-79.981539,-1.965711],[-79.9815524,-1.9656708],[-79.9816328,-1.9655582],[-79.9818346,-1.9654389],[-79.9824697,-1.9654993],[-79.9826869,-1.9655582],[-79.9829257,-1.9656601],[-79.9832663,-1.9657191],[-79.9835318,-1.9656976],[-79.9836418,-1.9657539],[-79.9837303,-1.965829],[-79.984916,-1.9659468]]]]},"properties":{"natural":"water","water":"river","osm_id":"way/20172343","source":"OpenStreetMap"}},{"type":"Feature","geometry":{"type":"MultiPolygon","coordinates":[[[[-79.8092925,-2.0213131],[-79.8090457,-2.0216067],[-79.8089404,-2.0219616],[-79.8088098,-2.0221695],[-79.8085521,-2.0223826],[-79.8077871,-2.0224865],[-79.8065328,-2.02238],[-79.8052861,-2.0222482],[-79.8048818,-2.0224839],[-79.8043836,-2.0226114],[-79.8038142,-2.0225877],[-79.8034247,-2.0226462],[-79.8030091,-2.0229793],[-79.8029339,-2.0234149],[-79.8029211,-2.0239118],[-79.8030233,-2.0250288],[-79.8029611,-2.025488],[-79.8027661,-2.025986],[-79.8023139,-2.0266529],[-79.8017013,-2.0271014],[-79.8014322,-2.0271896],[-79.8010669,-2.0271317],[-79.8007123,-2.0269336],[-79.8003103,-2.0264728],[-79.799721,-2.0249519],[-79.7996059,-2.0248114],[-79.799316,-2.024753],[-79.7990778,-2.0248599],[-79.7989308,-2.0250958],[-79.7988978,-2.0254078],[-79.7996231,-2.0264742],[-79.7996977,-2.0268666],[-79.7995855,-2.0272941],[-79.7992841,-2.0277327],[-79.7988375,-2.0278259],[-79.7979033,-2.0275152],[-79.7974014,-2.0266441],[-79.7969282,-2.0260919],[-79.7963889,-2.0260152],[-79.7959496,-2.0266537],[-79.7959078,-2.0272888],[-79.7962716,-2.0282707],[-79.7952849,-2.0296023],[-79.7941898,-2.0304914],[-79.7939638,-2.0303603],[-79.7937031,-2.0302091],[-79.7948649,-2.0293809],[-79.7957833,-2.0281709],[-79.795556,-2.0273293],[-79.7954337,-2.0265691],[-79.7958493,-2.0259423],[-79.7961228,-2.0254019],[-79.79653,-2.0253745],[-79.7973359,-2.025929],[-79.7981334,-2.0271785],[-79.79878,-2.0274558],[-79.7990899,-2.0273957],[-79.7992956,-2.0270792],[-79.7992808,-2.0266412],[-79.7990872,-2.0262219],[-79.7985202,-2.0254684],[-79.7985918,-2.0250159],[-79.7988799,-2.0245785],[-79.799187,-2.0243598],[-79.7993905,-2.0243501],[-79.7997891,-2.0245332],[-79.8000107,-2.0247779],[-79.8003414,-2.0256558],[-79.8005847,-2.0262948],[-79.8009261,-2.0267208],[-79.8012558,-2.026861],[-79.8014955,-2.0268502],[-79.8018504,-2.0267036],[-79.8021913,-2.0264203],[-79.8025169,-2.0259364],[-79.8027567,-2.0255298],[-79.8028978,-2.0250905],[-79.8028159,-2.0246479],[-79.8026685,-2.0244248],[-79.8027535,-2.0233522],[-79.8029621,-2.0228307],[-79.8032835,-2.022433],[-79.8042204,-2.0224413],[-79.8058247,-2.0220367],[-79.8066345,-2.0222287],[-79.8076403,-2.0222843],[-79.8083662,-2.0222436],[-79.808702,-2.0220443],[-79.8087381,-2.0219222],[-79.8088698,-2.0215762],[-79.8091179,-2.0210341],[-79.8092925,-2.0213131]]]]},"properties":{"natural":"water","water":"river","osm_id":"way/20172376","source":"OpenStreetMap"}},{"type":"Feature","geometry":{"type":"MultiPolygon","coordinates":[[[[-79.8509649,-2.0707952],[-79.8506913,-2.0708176],[-79.8503465,-2.0710611],[-79.8502491,-2.0713233],[-79.8502416,-2.0715068],[-79.8502416,-2.0718664],[-79.8502303,-2.0720574],[-79.8502116,-2.0723533],[-79.8501216,-2.0725967],[-79.849968,-2.0727016],[-79.8498855,-2.0728777],[-79.849953,-2.0731024],[-79.8498555,-2.0732784],[-79.8494807,-2.0734844],[-79.8492858,-2.0735369],[-79.8490282,-2.0735951],[-79.8488751,-2.0736804],[-79.8487349,-2.0739601],[-79.8486687,-2.074351],[-79.8486583,-2.0747329],[-79.8487554,-2.0751189],[-79.849001,-2.0755294],[-79.8492671,-2.0757654],[-79.8493608,-2.0759826],[-79.8494358,-2.0763347],[-79.8494095,-2.0765632],[-79.8493046,-2.0768179],[-79.8488349,-2.0772412],[-79.8487485,-2.0772765],[-79.8475989,-2.0780242],[-79.8473513,-2.0768219],[-79.8477272,-2.0770036],[-79.847957,-2.0770111],[-79.8486702,-2.0768388],[-79.8489539,-2.0766925],[-79.849082,-2.0764274],[-79.849082,-2.0761805],[-79.8488898,-2.0759061],[-79.8487412,-2.0758674],[-79.8487939,-2.0756873],[-79.8483957,-2.07501],[-79.8483385,-2.0744996],[-79.8484446,-2.0738958],[-79.8485848,-2.0736519],[-79.8488154,-2.0734107],[-79.8485696,-2.0730531],[-79.8483683,-2.0730166],[-79.8481578,-2.0731354],[-79.847984,-2.0732452],[-79.8477095,-2.0734098],[-79.8474248,-2.0735153],[-79.8471422,-2.0736201],[-79.8466389,-2.0736201],[-79.8463278,-2.0735469],[-79.8461072,-2.0734313],[-79.8457696,-2.0732543],[-79.8453762,-2.0731354],[-79.8452082,-2.072927],[-79.8451108,-2.0728062],[-79.8450559,-2.0720564],[-79.8448638,-2.0714895],[-79.8442873,-2.0708677],[-79.8440219,-2.0702824],[-79.8438709,-2.0699177],[-79.843987,-2.0696857],[-79.8442554,-2.0694103],[-79.843837,-2.0693224],[-79.8435648,-2.0689539],[-79.8439122,-2.0692197],[-79.8442049,-2.0692674],[-79.844452,-2.0691851],[-79.8446716,-2.0689748],[-79.844635,-2.0688285],[-79.8443513,-2.0688468],[-79.8441775,-2.068545],[-79.8441866,-2.0682524],[-79.8441226,-2.0679415],[-79.84415,-2.06753],[-79.8443605,-2.0681335],[-79.8444062,-2.0685725],[-79.8447631,-2.0687096],[-79.8448821,-2.0689199],[-79.844818,-2.0691303],[-79.8444154,-2.0695052],[-79.8440585,-2.0699167],[-79.844333,-2.0706665],[-79.8445801,-2.0708402],[-79.8449644,-2.071334],[-79.845184,-2.0715443],[-79.8453487,-2.0723673],[-79.8452847,-2.0726599],[-79.8454128,-2.0728977],[-79.845916,-2.0731171],[-79.8465748,-2.0734098],[-79.8471056,-2.0734189],[-79.8474533,-2.0733549],[-79.8478284,-2.0730714],[-79.8480755,-2.0728611],[-79.8483866,-2.0728154],[-79.8486062,-2.0729343],[-79.8488532,-2.0731446],[-79.8490066,-2.0734139],[-79.8494023,-2.0733549],[-79.8496859,-2.0731994],[-79.8496585,-2.0728428],[-79.8498506,-2.0725593],[-79.8499787,-2.0721844],[-79.8499787,-2.0716358],[-79.849997,-2.071398],[-79.8501434,-2.071078],[-79.850299,-2.0708585],[-79.8505369,-2.0707214],[-79.8508663,-2.0706756],[-79.8509649,-2.0707952]]]]},"properties":{"natural":"water","water":"river","osm_id":"way/47573891","source":"OpenStreetMap"}},{"type":"Feature","geometry":{"type":"MultiPolygon","coordinates":[[[[-79.783085,-1.8725351],[-79.7830689,-1.8730391],[-79.7829241,-1.8735752],[-79.7826183,-1.8740471],[-79.7819907,-1.874476],[-79.7814113,-1.8748727],[-79.7806442,-1.8753982],[-79.780156,-1.8758861],[-79.7796303,-1.8766099],[-79.7795445,-1.8770334],[-79.7796679,-1.8774302],[-79.7799575,-1.8776554],[-79.7800916,-1.8778269],[-79.7802794,-1.87802],[-79.7805744,-1.87854],[-79.7808427,-1.8788724],[-79.7811484,-1.8792638],[-79.781363,-1.8796928],[-79.781422,-1.880052],[-79.7813952,-1.8808669],[-79.7814381,-1.8811296],[-79.7812343,-1.8818374],[-79.780966,-1.8821698],[-79.7803867,-1.8825665],[-79.7796947,-1.8829365],[-79.7790939,-1.8834619],[-79.778595,-1.8839552],[-79.7780746,-1.8843948],[-79.7773773,-1.8847916],[-79.7758806,-1.8851883],[-79.7753388,-1.8852258],[-79.7750223,-1.8853277],[-79.7744966,-1.8855904],[-79.7733271,-1.8860622],[-79.7728014,-1.886341],[-79.7725278,-1.8867164],[-79.7721845,-1.8874509],[-79.7718465,-1.8880192],[-79.7715086,-1.8885071],[-79.7709936,-1.8891022],[-79.7702158,-1.8896866],[-79.7699529,-1.889885],[-79.7695237,-1.8901852],[-79.7691321,-1.8904051],[-79.7687674,-1.8908715],[-79.7688103,-1.8913004],[-79.7688693,-1.8915792],[-79.7690678,-1.892303],[-79.7692072,-1.892925],[-79.7693682,-1.8934772],[-79.7694379,-1.8939329],[-79.7693467,-1.8941635],[-79.7692233,-1.8946192],[-79.7691107,-1.8948765],[-79.7687298,-1.8960507],[-79.7686386,-1.8972892],[-79.7683639,-1.8983662],[-79.7679939,-1.9001131],[-79.7679069,-1.9004392],[-79.7678638,-1.9008831],[-79.766991,-1.9021875],[-79.7665439,-1.9020831],[-79.7673537,-1.9008831],[-79.7677948,-1.8985065],[-79.7681505,-1.8967209],[-79.7683275,-1.8959328],[-79.7686654,-1.8948068],[-79.7688156,-1.8944262],[-79.7687727,-1.8939919],[-79.7688317,-1.8927373],[-79.7686869,-1.8920725],[-79.7685474,-1.891665],[-79.7684026,-1.8911771],[-79.7686064,-1.8903354],[-79.7689658,-1.8899869],[-79.7691751,-1.8898743],[-79.7694862,-1.8897134],[-79.7700602,-1.8892523],[-79.7705859,-1.8887859],[-79.7709668,-1.8882819],[-79.7714335,-1.8875688],[-79.7718412,-1.8868182],[-79.7721416,-1.8863893],[-79.7725278,-1.886014],[-79.7729087,-1.8856923],[-79.7732627,-1.8854778],[-79.7735846,-1.8852044],[-79.7739548,-1.8850007],[-79.7749203,-1.8848237],[-79.7762775,-1.8845128],[-79.7769427,-1.8842769],[-79.7775275,-1.8840356],[-79.7785789,-1.8831938],[-79.7793889,-1.8825987],[-79.7801238,-1.8822341],[-79.7806335,-1.8819285],[-79.7808212,-1.8816551],[-79.780848,-1.8811993],[-79.7807635,-1.8808053],[-79.780675,-1.8804487],[-79.7806402,-1.8803201],[-79.7804993,-1.879548],[-79.7802258,-1.8787545],[-79.7796679,-1.8779771],[-79.779346,-1.8776178],[-79.7791582,-1.877205],[-79.7790617,-1.8769101],[-79.7791368,-1.8761756],[-79.7793138,-1.8757467],[-79.7796679,-1.8753231],[-79.7800702,-1.8750282],[-79.7805315,-1.8748406],[-79.7809553,-1.8746475],[-79.7811914,-1.8745296],[-79.7818458,-1.8741865],[-79.7822267,-1.8737683],[-79.7823769,-1.8733929],[-79.7824466,-1.8729211],[-79.7824413,-1.8723367],[-79.7823179,-1.8717791],[-79.7822267,-1.871495],[-79.7821945,-1.8711143],[-79.782216,-1.8705299],[-79.782452,-1.8700366],[-79.7825807,-1.870369],[-79.7827202,-1.8711357],[-79.7829509,-1.8718059],[-79.7830474,-1.8720901],[-79.783085,-1.8725351]],[[-79.7810707,-1.880942],[-79.7810626,-1.8807369],[-79.7810264,-1.880623],[-79.7809795,-1.8805064],[-79.7809486,-1.8804715],[-79.7809419,-1.8805171],[-79.7809419,-1.8806297],[-79.7809446,-1.8807691],[-79.7809795,-1.8809286],[-79.7810666,-1.8810425],[-79.7810707,-1.880942]]]]},"properties":{"natural":"water","water":"river","osm_id":"relation/9442788","source":"OpenStreetMap"}},{"type":"Feature","geometry":{"type":"MultiPolygon","coordinates":[[[[-80.0088828,-1.96939],[-80.0088608,-1.9699222],[-80.0088531,-1.9701095],[-80.0085942,-1.9712959],[-80.0084734,-1.9714708],[-80.0083772,-1.9718833],[-80.008186,-1.9722009],[-80.007854,-1.972556],[-80.007314,-1.9731363],[-80.0066494,-1.973894],[-80.0047699,-1.9761],[-80.00401,-1.97687],[-80.0032577,-1.9773528],[-80.0026456,-1.9778238],[-80.0024015,-1.977805],[-80.0010948,-1.9785687],[-80.0000291,-1.9789041],[-79.9988457,-1.978962],[-79.9982074,-1.9787995],[-79.9966391,-1.9780294],[-79.9958213,-1.9772831],[-79.9949075,-1.9756045],[-79.9942578,-1.9739718],[-79.9932067,-1.9710751],[-79.9925699,-1.968465],[-79.9917808,-1.9658441],[-79.9905719,-1.9636781],[-79.9900929,-1.9631096],[-79.9896026,-1.9629088],[-79.9889806,-1.9630755],[-79.9883379,-1.9635511],[-79.9874394,-1.9648386],[-79.9858561,-1.9675884],[-79.9849485,-1.9688013],[-79.9832399,-1.9704365],[-79.9817357,-1.9719435],[-79.9815528,-1.973145],[-79.9837184,-1.9750161],[-79.9845445,-1.9760047],[-79.9859827,-1.9794948],[-79.9858674,-1.9814024],[-79.9850305,-1.9828686],[-79.9844923,-1.9831967],[-79.9840526,-1.9834648],[-79.9825897,-1.9836514],[-79.9808554,-1.9826579],[-79.9789773,-1.9824574],[-79.9758908,-1.9826982],[-79.9725954,-1.9830001],[-79.9711501,-1.9836439],[-79.9697425,-1.985026],[-79.9683156,-1.9878594],[-79.9675597,-1.9911442],[-79.9669659,-1.9968522],[-79.9666333,-1.9989902],[-79.9658431,-2.0007348],[-79.9648008,-2.0015684],[-79.9636276,-2.0025133],[-79.962835,-2.0028036],[-79.96075,-2.0028552],[-79.9587975,-2.0041053],[-79.9580164,-2.0056713],[-79.9578705,-2.0115449],[-79.9575883,-2.0130069],[-79.9569662,-2.0147468],[-79.9521826,-2.019876],[-79.9511717,-2.0206191],[-79.9501542,-2.0210544],[-79.9492532,-2.0213206],[-79.9481518,-2.0213927],[-79.9474512,-2.0211764],[-79.9457446,-2.0206494],[-79.9456088,-2.0205547],[-79.9442168,-2.0195831],[-79.9421927,-2.0181704],[-79.9407368,-2.0176187],[-79.9398112,-2.0175624],[-79.9393099,-2.0175319],[-79.938548,-2.0178374],[-79.9381352,-2.0181358],[-79.9378124,-2.0187814],[-79.9378185,-2.019806],[-79.9380529,-2.0220481],[-79.938708,-2.025012],[-79.9390271,-2.0264487],[-79.9394025,-2.0282148],[-79.9394699,-2.0297651],[-79.9393418,-2.0306219],[-79.9388393,-2.0316],[-79.9378448,-2.0330042],[-79.9375025,-2.0334995],[-79.9373353,-2.033848],[-79.9370938,-2.0343227],[-79.9352603,-2.0358166],[-79.9326733,-2.0384548],[-79.931086,-2.0410152],[-79.9307931,-2.0428074],[-79.9311085,-2.0438909],[-79.9321149,-2.0448913],[-79.9341519,-2.0455994],[-79.9377239,-2.0459887],[-79.9394598,-2.0470362],[-79.9405837,-2.04857],[-79.9405397,-2.0513957],[-79.9406985,-2.0527623],[-79.9404914,-2.0542226],[-79.9402893,-2.0572687],[-79.9402629,-2.0601014],[-79.9399207,-2.0625881],[-79.9394222,-2.0634588],[-79.9383743,-2.0647256],[-79.9381286,-2.0649753],[-79.9374145,-2.0654775],[-79.9362053,-2.0660964],[-79.9360845,-2.0661582],[-79.935304,-2.0663211],[-79.9339254,-2.065968],[-79.9324522,-2.0660053],[-79.9322297,-2.0660109],[-79.9310493,-2.0657021],[-79.9276662,-2.0648171],[-79.9272915,-2.0646119],[-79.9253051,-2.063639],[-79.9227546,-2.0624116],[-79.9225525,-2.0621862],[-79.9224689,-2.0620929],[-79.9221219,-2.0617058],[-79.9213869,-2.0614382],[-79.9194834,-2.0607914],[-79.9177262,-2.0602174],[-79.9165287,-2.0596327],[-79.9159473,-2.0593488],[-79.9147633,-2.0586103],[-79.9113322,-2.05647],[-79.9102238,-2.0547073],[-79.9093537,-2.0540227],[-79.9058835,-2.0548398],[-79.9037661,-2.055771],[-79.9017405,-2.0566618],[-79.9005395,-2.05719],[-79.9002209,-2.0572732],[-79.895926,-2.0583944],[-79.8940873,-2.0583638],[-79.8937718,-2.0583586],[-79.8913245,-2.0582941],[-79.8888085,-2.0577993],[-79.8871914,-2.0575171],[-79.8866779,-2.0574275],[-79.8858329,-2.0574511],[-79.8850517,-2.0577044],[-79.8842841,-2.0581175],[-79.8839343,-2.0585487],[-79.8836845,-2.0590299],[-79.8836845,-2.0595655],[-79.8842114,-2.0602056],[-79.8853288,-2.0613223],[-79.8859858,-2.0621971],[-79.8862014,-2.0624841],[-79.8868323,-2.0633241],[-79.8878266,-2.0642574],[-79.8880269,-2.0644454],[-79.8897666,-2.0656256],[-79.8903414,-2.0660644],[-79.8907372,-2.0663665],[-79.8928656,-2.0679913],[-79.8932603,-2.0682938],[-79.8946753,-2.0701407],[-79.8948463,-2.070569],[-79.894954,-2.0719046],[-79.8949312,-2.0721032],[-79.8953682,-2.0738618],[-79.8954399,-2.0741505],[-79.8953107,-2.0753085],[-79.8951492,-2.076756],[-79.8948358,-2.0773552],[-79.8944543,-2.0778091],[-79.8947358,-2.0784192],[-79.8947523,-2.0796223],[-79.8947586,-2.079843],[-79.8948235,-2.082108],[-79.8948442,-2.0824684],[-79.8946678,-2.0839702],[-79.8945222,-2.0852099],[-79.8927062,-2.089142],[-79.8924324,-2.0897348],[-79.8911922,-2.0924201],[-79.8910137,-2.0926601],[-79.8881122,-2.0965599],[-79.8837207,-2.1070823],[-79.8834921,-2.10763],[-79.8828338,-2.1085487],[-79.8811009,-2.1109767],[-79.879712,-2.1131813],[-79.8793554,-2.1137473],[-79.8791077,-2.1143654],[-79.8788354,-2.1148623],[-79.8780463,-2.1165478],[-79.8777408,-2.1188312],[-79.8777213,-2.1202737],[-79.8781945,-2.1219196],[-79.8782238,-2.1220737],[-79.8782967,-2.1224566],[-79.8789922,-2.12541],[-79.8793929,-2.1272969],[-79.8795308,-2.1279461],[-79.8796381,-2.1289959],[-79.8797607,-2.1301961],[-79.8795826,-2.1323745],[-79.8793721,-2.13495],[-79.8790571,-2.136057],[-79.878791,-2.1369922],[-79.8772406,-2.1422037],[-79.8770908,-2.1427074],[-79.8762592,-2.146708],[-79.875976,-2.1490925],[-79.8760447,-2.1520687],[-79.8760189,-2.1546761],[-79.8761734,-2.1628037],[-79.871228,-2.1590172],[-79.8654016,-2.1592562],[-79.8658566,-2.1590589],[-79.8682341,-2.1555252],[-79.8694357,-2.1536297],[-79.8694873,-2.1534662],[-79.8702096,-2.1517926],[-79.8709118,-2.1503259],[-79.8712422,-2.149361],[-79.8714579,-2.146465],[-79.8715297,-2.1450905],[-79.8714487,-2.1436637],[-79.8721922,-2.13984],[-79.8737322,-2.13675],[-79.8746647,-2.1316385],[-79.8744556,-2.1300184],[-79.8735443,-2.1268303],[-79.8735363,-2.1263949],[-79.8735189,-2.1254431],[-79.8736876,-2.1225692],[-79.8736766,-2.122458],[-79.8736616,-2.1223692],[-79.8736566,-2.1223442],[-79.8736507,-2.1223185],[-79.8735745,-2.1221635],[-79.8731321,-2.1194974],[-79.8729539,-2.1180081],[-79.8730552,-2.1170606],[-79.8730321,-2.1154463],[-79.8738838,-2.1125662],[-79.8739567,-2.1123197],[-79.8741937,-2.1115182],[-79.8749168,-2.1100499],[-79.8758245,-2.1087508],[-79.8764422,-2.1078801],[-79.8787024,-2.1051431],[-79.8788497,-2.1048692],[-79.8794463,-2.1037809],[-79.8800882,-2.1022714],[-79.8803967,-2.1015587],[-79.8803594,-2.1015007],[-79.8804856,-2.1012305],[-79.8805569,-2.1012252],[-79.8809269,-2.1002013],[-79.8812289,-2.0999207],[-79.8814185,-2.0995843],[-79.8814775,-2.09929],[-79.8813916,-2.0990499],[-79.8816134,-2.0985945],[-79.8817009,-2.0983678],[-79.8819679,-2.0983248],[-79.8830275,-2.0961242],[-79.8867023,-2.09139],[-79.8888836,-2.0885138],[-79.8904222,-2.0851901],[-79.8917983,-2.0767915],[-79.892582,-2.073639],[-79.892656,-2.072588],[-79.8920601,-2.0707277],[-79.8907506,-2.0692535],[-79.8877299,-2.0677723],[-79.8853122,-2.06561],[-79.883474,-2.0626418],[-79.8821421,-2.0613477],[-79.8818943,-2.0610924],[-79.8816979,-2.0602267],[-79.8812222,-2.05813],[-79.8826322,-2.05555],[-79.8840541,-2.0540093],[-79.8848786,-2.0531993],[-79.8859327,-2.052564],[-79.8862587,-2.0525141],[-79.887469,-2.0523287],[-79.8877398,-2.0523891],[-79.8894989,-2.0527811],[-79.8897434,-2.0528967],[-79.8898938,-2.0529678],[-79.894637,-2.0552097],[-79.898751,-2.0546645],[-79.9041197,-2.0533703],[-79.9045992,-2.0527018],[-79.9052955,-2.0524867],[-79.9064258,-2.0527565],[-79.9077691,-2.0516012],[-79.9079897,-2.0515665],[-79.909086,-2.0513953],[-79.9128175,-2.0528433],[-79.9139771,-2.0539685],[-79.9191336,-2.0576387],[-79.9236334,-2.0604227],[-79.9237991,-2.0605104],[-79.9259103,-2.0616274],[-79.9263319,-2.0617989],[-79.9279789,-2.062469],[-79.9283907,-2.0626032],[-79.9303677,-2.063237],[-79.9318221,-2.0637046],[-79.9325679,-2.0637356],[-79.93545,-2.0638553],[-79.9366726,-2.0629235],[-79.9370434,-2.0615144],[-79.9373135,-2.0605303],[-79.9375687,-2.056983],[-79.9377749,-2.0528083],[-79.9381311,-2.0511796],[-79.9384123,-2.0495608],[-79.9383424,-2.0489379],[-79.9378139,-2.0482964],[-79.9365953,-2.0477674],[-79.9329248,-2.0474601],[-79.9319779,-2.0470035],[-79.9312414,-2.0465896],[-79.9302513,-2.045719],[-79.9291113,-2.0434626],[-79.9289495,-2.0422023],[-79.9290825,-2.040806],[-79.92953,-2.0396001],[-79.93068,-2.0378],[-79.9324801,-2.0357399],[-79.933905,-2.0345379],[-79.934758,-2.0341117],[-79.9355511,-2.0335434],[-79.9361571,-2.0329377],[-79.9367183,-2.0318535],[-79.9372212,-2.0302058],[-79.9372944,-2.0288626],[-79.9367931,-2.0255203],[-79.9365648,-2.0246429],[-79.9358592,-2.0219315],[-79.9360825,-2.0194571],[-79.9364163,-2.0181569],[-79.9371148,-2.0165325],[-79.9376685,-2.0159418],[-79.9377244,-2.0159111],[-79.9390977,-2.0151567],[-79.9407516,-2.0152517],[-79.9408519,-2.0152575],[-79.9433623,-2.0164876],[-79.9460558,-2.0189552],[-79.9473822,-2.0194559],[-79.9479243,-2.0196606],[-79.9495841,-2.0194692],[-79.9511494,-2.0183997],[-79.9532056,-2.0162241],[-79.9555193,-2.0135886],[-79.9558857,-2.0130182],[-79.9562837,-2.0112335],[-79.9560367,-2.0058249],[-79.9565006,-2.0041873],[-79.9572339,-2.0031779],[-79.9583412,-2.0023255],[-79.9604885,-2.0013833],[-79.9629726,-2.0000968],[-79.9639151,-1.9992717],[-79.9647536,-1.997235],[-79.9652686,-1.9917784],[-79.9657701,-1.9890984],[-79.9671783,-1.9862987],[-79.9672347,-1.9857936],[-79.9676053,-1.9849574],[-79.9684084,-1.9848555],[-79.9684293,-1.9832209],[-79.9690419,-1.9821079],[-79.9708948,-1.9820998],[-79.9720095,-1.9810356],[-79.9745817,-1.9803285],[-79.9773042,-1.9802165],[-79.9798297,-1.9804368],[-79.9816477,-1.9812356],[-79.98252,-1.9812431],[-79.9828596,-1.9787298],[-79.9825399,-1.9768641],[-79.9816204,-1.9757044],[-79.9800411,-1.9744424],[-79.9796349,-1.97341],[-79.97959,-1.9723781],[-79.9797906,-1.9715307],[-79.9804161,-1.9700751],[-79.9824433,-1.9679692],[-79.9841316,-1.9667475],[-79.984916,-1.9659468],[-79.985631,-1.9653972],[-79.9859432,-1.9649922],[-79.9866057,-1.9636798],[-79.9876201,-1.96231],[-79.988059,-1.9619687],[-79.9884441,-1.9618475],[-79.9888736,-1.9618676],[-79.9893539,-1.9615401],[-79.9906339,-1.9613642],[-79.9910679,-1.961558],[-79.9912918,-1.961895],[-79.9923864,-1.9622705],[-79.9929926,-1.9627748],[-79.9935044,-1.9636044],[-79.9940473,-1.9650064],[-79.9944255,-1.9664247],[-79.9946894,-1.9682382],[-79.9960206,-1.974914],[-79.9964052,-1.9759962],[-79.99687,-1.9767003],[-79.9975706,-1.977308],[-79.9985813,-1.9774043],[-79.9997851,-1.9772456],[-80.0014815,-1.9763387],[-80.003773,-1.9746347],[-80.0058192,-1.9726813],[-80.0066828,-1.9718131],[-80.0067789,-1.9717165],[-80.0073156,-1.9710212],[-80.007454,-1.9704904],[-80.007424,-1.9698929],[-80.0072523,-1.9694595],[-80.0069313,-1.969071],[-80.0065244,-1.9687121],[-80.0054129,-1.968365],[-80.0045339,-1.968399],[-80.0028594,-1.9688212],[-80.001912,-1.9687829],[-80.0010787,-1.9685805],[-80.0003472,-1.9682955],[-79.9995557,-1.9678058],[-79.9988219,-1.9670657],[-79.9970899,-1.9654],[-79.9966864,-1.9648856],[-79.998496,-1.9650289],[-79.9991059,-1.9658824],[-79.9999921,-1.9666807],[-80.0008322,-1.9670616],[-80.0018316,-1.967237],[-80.004531,-1.9671986],[-80.0050992,-1.9669821],[-80.0058664,-1.9669222],[-80.0075315,-1.9672512],[-80.0081297,-1.9675688],[-80.0086356,-1.9681224],[-80.0086178,-1.9685215],[-80.0088828,-1.96939]]]]},"properties":{"name":"Río Daule","natural":"water","water":"river","osm_id":"relation/122906","source":"OpenStreetMap"}},{"type":"Feature","geometry":{"type":"MultiPolygon","coordinates":[[[[-79.8713886,-2.1020333],[-79.8712543,-2.1035301],[-79.8710332,-2.1044056],[-79.8704924,-2.1056653],[-79.8703051,-2.1060648],[-79.8701074,-2.1064865],[-79.8699077,-2.1069124],[-79.869707,-2.1073406],[-79.8695818,-2.1082454],[-79.8693693,-2.1096473],[-79.8692594,-2.1100147],[-79.8691548,-2.110375],[-79.8684439,-2.1127412],[-79.8667347,-2.116179],[-79.865127,-2.1181535],[-79.8647172,-2.1187342],[-79.8633928,-2.119827],[-79.8630701,-2.1201865],[-79.8624699,-2.1208901],[-79.8621864,-2.1212523],[-79.8619029,-2.1216144],[-79.8614092,-2.1223497],[-79.8609427,-2.1230946],[-79.8604104,-2.1249034],[-79.8601334,-2.1260945],[-79.8593892,-2.128446],[-79.8592712,-2.1288188],[-79.8596392,-2.1289071],[-79.8595848,-2.1291053],[-79.859191,-2.1290181],[-79.8585748,-2.1312506],[-79.8574489,-2.1353192],[-79.8565643,-2.1369807],[-79.8563758,-2.137681],[-79.8557105,-2.1401533],[-79.855465,-2.1423022],[-79.855428,-2.1425399],[-79.8553264,-2.1431917],[-79.8550975,-2.1443603],[-79.855125,-2.1445521],[-79.8552669,-2.1455422],[-79.8559186,-2.1465272],[-79.8559616,-2.1465922],[-79.8564263,-2.1474718],[-79.856912,-2.1483912],[-79.8569497,-2.1484378],[-79.8590152,-2.1509909],[-79.8601231,-2.1523603],[-79.8609559,-2.1535624],[-79.8611356,-2.1537961],[-79.8617092,-2.1548148],[-79.8619341,-2.1552851],[-79.8626293,-2.1560227],[-79.8632215,-2.1570777],[-79.8643888,-2.1585186],[-79.8649467,-2.1591361],[-79.8654016,-2.1592562],[-79.854108,-2.1693534],[-79.8538079,-2.1691324],[-79.8536444,-2.1688033],[-79.8534866,-2.1687323],[-79.8532239,-2.1687172],[-79.8524421,-2.1681628],[-79.8518437,-2.1681025],[-79.8516423,-2.1677319],[-79.8514908,-2.1675885],[-79.8507893,-2.1671818],[-79.8491395,-2.1656275],[-79.8478493,-2.1642995],[-79.8459696,-2.1622582],[-79.8449305,-2.1605119],[-79.8447987,-2.1595823],[-79.8444703,-2.1592312],[-79.8437871,-2.1582032],[-79.8427389,-2.155775],[-79.8417759,-2.1530787],[-79.8417805,-2.1524253],[-79.8416639,-2.1518125],[-79.8412863,-2.1509239],[-79.8407669,-2.1511054],[-79.8405365,-2.1509755],[-79.8408139,-2.150352],[-79.8406232,-2.1488541],[-79.8410683,-2.1487724],[-79.8410138,-2.1484365],[-79.8405868,-2.148382],[-79.8404142,-2.1471655],[-79.8401508,-2.1441062],[-79.8389425,-2.138632],[-79.8388426,-2.1375971],[-79.8383248,-2.1357179],[-79.8386064,-2.1325858],[-79.839315,-2.1311969],[-79.8396148,-2.1295355],[-79.8406595,-2.127847],[-79.8404051,-2.1275655],[-79.844148,-2.1197491],[-79.8443388,-2.1185326],[-79.8438172,-2.1150333],[-79.8437937,-2.1120234],[-79.8435393,-2.1109521],[-79.8437574,-2.1058591],[-79.843939,-2.1004393],[-79.8438664,-2.0949922],[-79.8436493,-2.0948614],[-79.8428661,-2.0946094],[-79.8407748,-2.0943807],[-79.8391914,-2.0943789],[-79.83763,-2.0947],[-79.8343001,-2.09548],[-79.8294135,-2.0968488],[-79.8271199,-2.09727],[-79.8180686,-2.0998448],[-79.81508,-2.1001873],[-79.8131719,-2.0999535],[-79.8096631,-2.0994136],[-79.7989834,-2.0978613],[-79.7964219,-2.0971612],[-79.7933615,-2.0954859],[-79.7908746,-2.0936161],[-79.7901311,-2.0926737],[-79.7889658,-2.091298],[-79.7887068,-2.090531],[-79.7875784,-2.0886373],[-79.7871768,-2.0868705],[-79.7872588,-2.0827559],[-79.7865937,-2.0817428],[-79.7870236,-2.0814519],[-79.787733,-2.0809719],[-79.7888462,-2.0791301],[-79.7903565,-2.0779062],[-79.7916187,-2.0770186],[-79.7927823,-2.0762152],[-79.7948416,-2.0758543],[-79.7975651,-2.0753333],[-79.7988376,-2.0746396],[-79.7995861,-2.073701],[-79.8006787,-2.0722709],[-79.8020787,-2.069534],[-79.8027534,-2.0669869],[-79.8034502,-2.064764],[-79.8034945,-2.0641026],[-79.8035752,-2.0628973],[-79.8040294,-2.0611594],[-79.8048357,-2.059228],[-79.805046,-2.0584512],[-79.8053212,-2.0573461],[-79.8055122,-2.0542578],[-79.8052221,-2.0527532],[-79.8048028,-2.0505782],[-79.8035346,-2.0476998],[-79.8018848,-2.0445091],[-79.8009042,-2.0426538],[-79.7998033,-2.0397979],[-79.7993721,-2.0386308],[-79.7987831,-2.0378218],[-79.7975943,-2.0368059],[-79.7955657,-2.035818],[-79.7930812,-2.0350866],[-79.7908888,-2.034617],[-79.7887489,-2.034505],[-79.7855072,-2.0348336],[-79.7812591,-2.035493],[-79.7767031,-2.0367035],[-79.7746303,-2.0368633],[-79.761745,-2.0349526],[-79.7601657,-2.0345377],[-79.7546816,-2.0340198],[-79.7527987,-2.033993],[-79.7497775,-2.0334188],[-79.7476205,-2.0325877],[-79.7468474,-2.0322012],[-79.7452228,-2.0311463],[-79.743613,-2.0301952],[-79.7432173,-2.0299073],[-79.7427424,-2.0297676],[-79.7422649,-2.0296895],[-79.7419999,-2.0298436],[-79.7414733,-2.0295885],[-79.7408887,-2.0296112],[-79.7406458,-2.0294019],[-79.7393769,-2.0283943],[-79.7377727,-2.027005],[-79.7371109,-2.0260914],[-79.7357751,-2.0222964],[-79.7355511,-2.020622],[-79.7356345,-2.0195663],[-79.7353719,-2.0188133],[-79.7360439,-2.0132797],[-79.7354899,-2.0107779],[-79.7352469,-2.0085927],[-79.7352465,-2.0073521],[-79.7353933,-2.0056449],[-79.7357751,-2.0035645],[-79.7362141,-2.0018722],[-79.7369696,-2.0001275],[-79.7391211,-1.9976608],[-79.7409658,-1.9956574],[-79.7423899,-1.9943501],[-79.7436255,-1.993338],[-79.7447134,-1.9922267],[-79.7453708,-1.9914585],[-79.7457413,-1.9907626],[-79.7458159,-1.9900994],[-79.7456834,-1.9893306],[-79.7444029,-1.9874601],[-79.7434958,-1.9867573],[-79.7426174,-1.9855901],[-79.7418975,-1.9848305],[-79.7407375,-1.9836901],[-79.7388825,-1.9823776],[-79.7373255,-1.9815736],[-79.734741,-1.980816],[-79.7281208,-1.9797561],[-79.7256038,-1.9787095],[-79.722964,-1.9767993],[-79.7215258,-1.9752355],[-79.7205495,-1.9735692],[-79.7202408,-1.9722893],[-79.7202394,-1.9720836],[-79.7203086,-1.9718579],[-79.7202737,-1.9712129],[-79.7186646,-1.9677679],[-79.7179983,-1.9672478],[-79.7178451,-1.9669482],[-79.7177773,-1.9666613],[-79.7175123,-1.9656845],[-79.7163075,-1.963362],[-79.7159116,-1.9629267],[-79.7156755,-1.9624334],[-79.7155618,-1.9614963],[-79.7152775,-1.9583406],[-79.7152743,-1.9580554],[-79.7152582,-1.9577841],[-79.7157912,-1.9547217],[-79.7151507,-1.9524715],[-79.7146945,-1.9515186],[-79.714152,-1.9504327],[-79.7136641,-1.9497612],[-79.7132242,-1.9490321],[-79.7122378,-1.9475188],[-79.7109257,-1.9459951],[-79.711129,-1.9455613],[-79.70963,-1.9427701],[-79.7080573,-1.9393492],[-79.7068562,-1.9375917],[-79.705572,-1.935897],[-79.7049674,-1.9348858],[-79.7036023,-1.9336349],[-79.7022831,-1.93287],[-79.7006131,-1.9319365],[-79.6981541,-1.9304417],[-79.6918297,-1.9270669],[-79.6829657,-1.9227274],[-79.6817731,-1.9218514],[-79.6803449,-1.920398],[-79.6797774,-1.9195527],[-79.6776984,-1.918348],[-79.6767847,-1.9179357],[-79.6753967,-1.9173759],[-79.6740426,-1.9165658],[-79.6723522,-1.9153653],[-79.671206,-1.9142768],[-79.669988,-1.9129639],[-79.6694413,-1.9108871],[-79.66892,-1.90794],[-79.6696525,-1.9068437],[-79.6702767,-1.9046827],[-79.6703638,-1.9026159],[-79.6701908,-1.9014443],[-79.6695333,-1.9004841],[-79.6684768,-1.8989387],[-79.6662603,-1.8971354],[-79.6627433,-1.8948355],[-79.6602767,-1.8930306],[-79.6582633,-1.891954],[-79.6570199,-1.8906699],[-79.65728,-1.88834],[-79.65792,-1.8873199],[-79.659205,-1.8862397],[-79.6608986,-1.8859358],[-79.6620398,-1.8857278],[-79.6637656,-1.8853342],[-79.66483,-1.8847401],[-79.6661601,-1.8834447],[-79.6668434,-1.8818427],[-79.6669722,-1.8794622],[-79.6665886,-1.8770227],[-79.6661568,-1.875299],[-79.6644635,-1.8691145],[-79.6643223,-1.867982],[-79.6636373,-1.8665916],[-79.6635106,-1.8649999],[-79.66309,-1.8635334],[-79.6620034,-1.8614469],[-79.660492,-1.8595172],[-79.6593333,-1.858402],[-79.6581357,-1.8580982],[-79.6572948,-1.8583162],[-79.65692,-1.8589501],[-79.6567294,-1.8609885],[-79.6575133,-1.8657672],[-79.6574289,-1.8673639],[-79.6572652,-1.8681735],[-79.6572465,-1.8684201],[-79.6572652,-1.8687981],[-79.6572706,-1.8692297],[-79.6571633,-1.8704789],[-79.656989,-1.871066],[-79.6564525,-1.8721062],[-79.6548601,-1.87378],[-79.6537814,-1.8745332],[-79.6525955,-1.8750497],[-79.6514956,-1.8757046],[-79.6495418,-1.8761784],[-79.6490979,-1.8762024],[-79.6486473,-1.876138],[-79.6473846,-1.8757682],[-79.646665,-1.8747183],[-79.6465016,-1.8730927],[-79.6466947,-1.8715486],[-79.6471547,-1.87003],[-79.6474457,-1.8674523],[-79.6470595,-1.8659725],[-79.6460072,-1.8646824],[-79.6448708,-1.863978],[-79.6440125,-1.8637207],[-79.6429084,-1.8638869],[-79.6402724,-1.8645911],[-79.6384485,-1.8652299],[-79.6366954,-1.8650932],[-79.6358077,-1.8646039],[-79.6350217,-1.8637207],[-79.6346792,-1.8625071],[-79.6350861,-1.8572868],[-79.6343851,-1.8545171],[-79.6332514,-1.8534206],[-79.6318983,-1.8527291],[-79.630497,-1.8521697],[-79.6294213,-1.8522254],[-79.6278978,-1.8520538],[-79.625752,-1.8514104],[-79.62439,-1.850765],[-79.6234558,-1.8495025],[-79.6224761,-1.8462999],[-79.6218993,-1.844514],[-79.6205807,-1.8424672],[-79.619723,-1.8411186],[-79.61902,-1.8402553],[-79.6183706,-1.8398293],[-79.6175899,-1.8397655],[-79.6163964,-1.8399365],[-79.6147647,-1.8405303],[-79.6135426,-1.8412662],[-79.6122452,-1.8416299],[-79.6114234,-1.8411124],[-79.6107796,-1.8406831],[-79.6095614,-1.839907],[-79.6077904,-1.8380125],[-79.606706,-1.8366427],[-79.6054101,-1.8354113],[-79.604702,-1.8343175],[-79.6031461,-1.8322553],[-79.6018696,-1.830886],[-79.6003615,-1.8301297],[-79.5984541,-1.8299709],[-79.5963298,-1.8309841],[-79.59315,-1.8319699],[-79.58957,-1.83209],[-79.5882801,-1.8327399],[-79.5863889,-1.8342144],[-79.5855351,-1.835166],[-79.5851338,-1.8338228],[-79.5848717,-1.8329505],[-79.5857764,-1.8318083],[-79.587317,-1.8306513],[-79.5898748,-1.829878],[-79.5933724,-1.829685],[-79.5952177,-1.8294277],[-79.5969092,-1.8286596],[-79.5976809,-1.8283346],[-79.5995093,-1.828291],[-79.601331,-1.8289256],[-79.6033357,-1.8304306],[-79.6043632,-1.8314185],[-79.6054879,-1.8326467],[-79.6066631,-1.8339107],[-79.6073876,-1.8348114],[-79.6084051,-1.836488],[-79.6091641,-1.8370964],[-79.6111822,-1.8385211],[-79.6127247,-1.838983],[-79.6169725,-1.8382825],[-79.6187997,-1.8386497],[-79.6197659,-1.8394829],[-79.6203447,-1.8400009],[-79.6203619,-1.8403894],[-79.621046,-1.8412927],[-79.6216418,-1.8420895],[-79.6225267,-1.8429903],[-79.6244189,-1.8457423],[-79.6251512,-1.8464777],[-79.6273033,-1.8473798],[-79.628957,-1.8479599],[-79.6300274,-1.8483061],[-79.6309047,-1.8496286],[-79.6321707,-1.8509662],[-79.6352358,-1.8529055],[-79.6364729,-1.854753],[-79.6365637,-1.8560184],[-79.6363306,-1.8579945],[-79.6361953,-1.861067],[-79.6362962,-1.8630625],[-79.6366954,-1.8636349],[-79.6374047,-1.8641557],[-79.6392489,-1.8637636],[-79.6418,-1.86268],[-79.6443558,-1.8621336],[-79.6456424,-1.862491],[-79.6466032,-1.8632019],[-79.6475208,-1.8641455],[-79.6483564,-1.8659481],[-79.6486044,-1.86816],[-79.6483469,-1.8707122],[-79.6481538,-1.8743795],[-79.6488627,-1.8751687],[-79.6497012,-1.875064],[-79.6515301,-1.8744199],[-79.6533201,-1.8728699],[-79.6546,-1.87158],[-79.6558571,-1.8689536],[-79.6560931,-1.8674738],[-79.6559366,-1.8660843],[-79.6548548,-1.8609315],[-79.65538,-1.8587],[-79.6555885,-1.8583678],[-79.65615,-1.85792],[-79.6566999,-1.857565],[-79.6574086,-1.857174],[-79.658417,-1.8570453],[-79.6595085,-1.8574329],[-79.660813,-1.8582496],[-79.6614491,-1.8588695],[-79.6626862,-1.8599712],[-79.6635155,-1.8611594],[-79.6637217,-1.8614283],[-79.66406,-1.8618694],[-79.6645039,-1.8629512],[-79.6658801,-1.8669501],[-79.6665724,-1.8690234],[-79.6668204,-1.8703181],[-79.6673102,-1.8720886],[-79.66792,-1.8736599],[-79.6684401,-1.87546],[-79.6692001,-1.87726],[-79.6698904,-1.8793121],[-79.66984,-1.88139],[-79.6684301,-1.8849999],[-79.66663,-1.88616],[-79.65972,-1.8880801],[-79.6585599,-1.8896301],[-79.6585814,-1.8902839],[-79.6590758,-1.8908286],[-79.6602679,-1.8914567],[-79.6694827,-1.8958899],[-79.6714216,-1.8973084],[-79.6721172,-1.8988283],[-79.6726562,-1.9005343],[-79.6729264,-1.9033852],[-79.6724868,-1.9054547],[-79.6729379,-1.9104153],[-79.673536,-1.9128817],[-79.6746405,-1.9144649],[-79.6767687,-1.9156847],[-79.6790266,-1.9168525],[-79.6813609,-1.9177643],[-79.6822447,-1.918254],[-79.6857476,-1.9195874],[-79.6871191,-1.9197763],[-79.6911997,-1.9211276],[-79.6939434,-1.9222112],[-79.6953522,-1.9229762],[-79.6976352,-1.9242626],[-79.7023888,-1.9263548],[-79.7045672,-1.9277257],[-79.7081523,-1.9315773],[-79.7095026,-1.9327586],[-79.7096967,-1.9329284],[-79.7116477,-1.9353035],[-79.7133306,-1.9371649],[-79.7139871,-1.9401994],[-79.7144366,-1.9422339],[-79.7150159,-1.9436064],[-79.7156167,-1.9438637],[-79.716003,-1.9433061],[-79.7171103,-1.9414277],[-79.7178524,-1.9408702],[-79.7173251,-1.9431349],[-79.7177203,-1.9452461],[-79.7195937,-1.9483396],[-79.7204196,-1.9509548],[-79.7210049,-1.9533669],[-79.7216089,-1.9585024],[-79.7215113,-1.9617085],[-79.7215483,-1.9627197],[-79.7216993,-1.9637865],[-79.7213949,-1.9659015],[-79.7214369,-1.9666168],[-79.7219013,-1.9682444],[-79.7228782,-1.9720938],[-79.7235701,-1.9737199],[-79.7243856,-1.9747465],[-79.7259026,-1.9757056],[-79.7280194,-1.9764734],[-79.7307628,-1.9748795],[-79.7321945,-1.9742989],[-79.733291,-1.9741723],[-79.7351605,-1.9746559],[-79.7379296,-1.9751861],[-79.7394612,-1.975184],[-79.7418897,-1.9756038],[-79.7443981,-1.977484],[-79.7454701,-1.9783699],[-79.7465476,-1.9793875],[-79.7471768,-1.9806412],[-79.7477379,-1.9830076],[-79.7478426,-1.9837422],[-79.7481751,-1.9864529],[-79.7482451,-1.9887964],[-79.7481343,-1.9915247],[-79.7477259,-1.9934796],[-79.7467601,-1.9960225],[-79.7455921,-1.9985804],[-79.7447792,-1.9996616],[-79.7438041,-2.000839],[-79.7429386,-2.0024511],[-79.7424714,-2.003512],[-79.7412601,-2.0062588],[-79.7406273,-2.0087645],[-79.7403364,-2.0135155],[-79.739399,-2.018819],[-79.7389993,-2.0206236],[-79.7389988,-2.0228216],[-79.7396328,-2.0242107],[-79.7415678,-2.0258779],[-79.7438282,-2.0272576],[-79.7459317,-2.0278857],[-79.7480705,-2.0278304],[-79.7519889,-2.0262525],[-79.7540721,-2.025803],[-79.7585931,-2.0257728],[-79.76192,-2.0257563],[-79.7702984,-2.0260974],[-79.7713142,-2.0262845],[-79.7724528,-2.0268983],[-79.7730662,-2.0275149],[-79.7740015,-2.0277742],[-79.7773744,-2.0285026],[-79.7785947,-2.0289768],[-79.7828828,-2.0294342],[-79.785332,-2.0292479],[-79.7869347,-2.0294236],[-79.7873265,-2.0295582],[-79.7881292,-2.0297804],[-79.7888126,-2.0298129],[-79.7899353,-2.0296991],[-79.7904343,-2.0297099],[-79.7917197,-2.0299268],[-79.7924953,-2.029981],[-79.7937031,-2.0302091],[-79.7939638,-2.0303603],[-79.7941898,-2.0304914],[-79.7945051,-2.0308807],[-79.7962322,-2.0319106],[-79.7983963,-2.0329784],[-79.8015849,-2.0350484],[-79.8025899,-2.0360484],[-79.8034691,-2.037311],[-79.8042852,-2.0386109],[-79.8047355,-2.0394744],[-79.8062061,-2.0439118],[-79.8063983,-2.0445371],[-79.8069978,-2.0462992],[-79.8077189,-2.0480842],[-79.8091876,-2.0518289],[-79.8100079,-2.0555108],[-79.809811,-2.0578905],[-79.8087322,-2.0609195],[-79.8082179,-2.064299],[-79.8078374,-2.0667988],[-79.80716,-2.06904],[-79.8057641,-2.0727939],[-79.8042583,-2.0753393],[-79.8027063,-2.0771636],[-79.7999608,-2.0794355],[-79.7976439,-2.0817182],[-79.7958292,-2.0837762],[-79.7949542,-2.0857206],[-79.7947016,-2.0873219],[-79.7946585,-2.0905432],[-79.795818,-2.0928861],[-79.7970468,-2.0935687],[-79.7981749,-2.0940021],[-79.7997004,-2.094073],[-79.800603,-2.0941612],[-79.8018791,-2.0941375],[-79.8029845,-2.0941525],[-79.804734,-2.0943977],[-79.8065589,-2.0943965],[-79.8088125,-2.0944038],[-79.8112912,-2.0938354],[-79.8152259,-2.0934585],[-79.817922,-2.0929943],[-79.8190663,-2.0921088],[-79.8218649,-2.0898866],[-79.8254872,-2.0871474],[-79.8279041,-2.0856898],[-79.8327852,-2.0829481],[-79.832969,-2.0826514],[-79.8331071,-2.082392],[-79.8331539,-2.0823197],[-79.8334738,-2.0821707],[-79.8339245,-2.0820581],[-79.8340123,-2.0824519],[-79.8347381,-2.0826122],[-79.8365234,-2.0822632],[-79.8393673,-2.0812203],[-79.8398971,-2.0808738],[-79.8415726,-2.0801995],[-79.84238,-2.0799329],[-79.8426853,-2.0799002],[-79.8432524,-2.0796023],[-79.8434487,-2.0795587],[-79.8438777,-2.079893],[-79.8442844,-2.0799153],[-79.8443648,-2.079784],[-79.8447811,-2.0796502],[-79.84496,-2.0794426],[-79.8453108,-2.0793694],[-79.8455043,-2.0791453],[-79.8456303,-2.0788786],[-79.8457057,-2.0783646],[-79.847262,-2.0781331],[-79.8475989,-2.0780242],[-79.8487485,-2.0772765],[-79.8499029,-2.0781267],[-79.8538252,-2.0802798],[-79.854366,-2.0809623],[-79.8556485,-2.0821685],[-79.8579931,-2.0839966],[-79.858533,-2.0847549],[-79.8596093,-2.085691],[-79.8601502,-2.0859807],[-79.860816,-2.0868097],[-79.8623521,-2.0879518],[-79.8641606,-2.0892965],[-79.8669315,-2.0913567],[-79.8673134,-2.0917014],[-79.867874,-2.0922072],[-79.8688086,-2.0935434],[-79.86892,-2.0936961],[-79.8701237,-2.0953467],[-79.8709773,-2.0973476],[-79.8710686,-2.0982148],[-79.871327,-2.099136],[-79.8713762,-2.101449],[-79.8713886,-2.1020333]],[[-79.868464,-2.1009404],[-79.8681791,-2.0989321],[-79.8674292,-2.0972109],[-79.8662906,-2.0950323],[-79.8651068,-2.0934976],[-79.8644266,-2.0930178],[-79.8609321,-2.0905897],[-79.8596261,-2.090404],[-79.8573709,-2.0908115],[-79.8564091,-2.0911862],[-79.8552455,-2.0921517],[-79.8552685,-2.0927446],[-79.8561127,-2.0987522],[-79.8559297,-2.1016266],[-79.8557284,-2.1024992],[-79.8557529,-2.1029065],[-79.8557606,-2.1054818],[-79.8553301,-2.1080169],[-79.8550557,-2.1092912],[-79.8549548,-2.1093144],[-79.8544464,-2.1112817],[-79.854178,-2.1135127],[-79.8541307,-2.1144021],[-79.8541333,-2.1155583],[-79.8542555,-2.116181],[-79.8543894,-2.1165124],[-79.8545433,-2.1168389],[-79.8548308,-2.1171375],[-79.855085,-2.1173504],[-79.8553842,-2.1175203],[-79.8557467,-2.1175872],[-79.8561771,-2.1175754],[-79.8567048,-2.1175625],[-79.8572236,-2.1176908],[-79.8575427,-2.1178303],[-79.8579308,-2.1177875],[-79.8582244,-2.117639],[-79.858452,-2.1174517],[-79.8614033,-2.1137005],[-79.8636409,-2.1117316],[-79.8646248,-2.1106105],[-79.8652261,-2.1098933],[-79.8656632,-2.1091959],[-79.8660463,-2.108525],[-79.8681346,-2.1033506],[-79.8682586,-2.1026829],[-79.8684068,-2.1018655],[-79.868464,-2.1009404]],[[-79.8303026,-2.0887098],[-79.8302919,-2.0883614],[-79.8301363,-2.0876269],[-79.8298681,-2.0873964],[-79.8294497,-2.087257],[-79.8269981,-2.0874715],[-79.8256356,-2.0881255],[-79.8204835,-2.0920475],[-79.8199408,-2.0925812],[-79.8200881,-2.0929878],[-79.8219389,-2.0931384],[-79.8260862,-2.0924678],[-79.8276258,-2.0919317],[-79.8281783,-2.0916744],[-79.8290956,-2.0908273],[-79.8296911,-2.0900822],[-79.8301041,-2.089337],[-79.8303026,-2.0887098]],[[-79.76993,-2.0303809],[-79.7692627,-2.0300592],[-79.7685036,-2.029825],[-79.7668171,-2.0295987],[-79.7655902,-2.0296641],[-79.7631527,-2.029774],[-79.7623193,-2.0305327],[-79.7623168,-2.030797],[-79.7632058,-2.0316493],[-79.7639594,-2.0320933],[-79.7659721,-2.0326025],[-79.7674913,-2.0322771],[-79.7690519,-2.0313818],[-79.7697686,-2.030806],[-79.76993,-2.0303809]],[[-79.7399456,-1.9757818],[-79.7397761,-1.9754247],[-79.7392214,-1.9753009],[-79.7378915,-1.9753432],[-79.7350876,-1.9747765],[-79.7333254,-1.9743283],[-79.7322664,-1.9744179],[-79.7309173,-1.9749942],[-79.7283477,-1.9764144],[-79.7283445,-1.9766728],[-79.7326999,-1.9778732],[-79.734837,-1.9781128],[-79.7365842,-1.9778383],[-79.7379731,-1.9772877],[-79.7396344,-1.9764643],[-79.7399456,-1.9757818]],[[-79.6313095,-1.851389],[-79.6311243,-1.8510954],[-79.6302282,-1.8497412],[-79.6290726,-1.8488422],[-79.6285683,-1.8485742],[-79.6278548,-1.848365],[-79.6270555,-1.8480273],[-79.6251619,-1.8475715],[-79.6250117,-1.8476305],[-79.6251887,-1.8480594],[-79.625178,-1.8484669],[-79.6255008,-1.8491971],[-79.6258646,-1.8498878],[-79.6265308,-1.850487],[-79.6284557,-1.8510244],[-79.6303976,-1.8511853],[-79.6313095,-1.851389]]]]},"properties":{"name":"Río Babahoyo","natural":"water","water":"river","osm_id":"relation/122161","source":"OpenStreetMap"}},{"type":"Feature","geometry":{"type":"MultiPolygon","coordinates":[[[[-79.8475989,-2.0780242],[-79.847262,-2.0781331],[-79.8457057,-2.0783646],[-79.8457476,-2.0779317],[-79.8455862,-2.0776152],[-79.8453099,-2.0774553],[-79.8451282,-2.0771865],[-79.844103,-2.0766343],[-79.8435411,-2.0761875],[-79.8423744,-2.0757275],[-79.8382575,-2.0755679],[-79.8378105,-2.0761003],[-79.8374906,-2.0757988],[-79.8369817,-2.0758533],[-79.835905,-2.076203],[-79.8343702,-2.07717],[-79.8325586,-2.0786703],[-79.8308048,-2.0812019],[-79.8331071,-2.082392],[-79.832969,-2.0826514],[-79.8305728,-2.0814073],[-79.8310924,-2.0802966],[-79.8322853,-2.0786054],[-79.8342195,-2.0770449],[-79.8357379,-2.0760687],[-79.8371744,-2.0755481],[-79.8378832,-2.07549],[-79.8386329,-2.0753716],[-79.8389302,-2.0753342],[-79.8393243,-2.0753352],[-79.8402917,-2.0754868],[-79.8423811,-2.0754523],[-79.842942,-2.0754466],[-79.8438945,-2.0759078],[-79.8445108,-2.0759198],[-79.8452599,-2.0761422],[-79.8457833,-2.0765125],[-79.8465021,-2.0769232],[-79.8470893,-2.0768341],[-79.8473513,-2.0768219],[-79.8475989,-2.0780242]]]]},"properties":{"natural":"water","water":"river","osm_id":"way/1107862106","source":"OpenStreetMap"}}]}